{
"type": "FeatureCollection",
"name": "CollegeStationCityLimits",
"crs": { "type": "name", "properties": { "name": "urn:ogc:def:crs:OGC:1.3:CRS84" } },
"features": [
{"type":"Feature","properties":{"OBJECTID":2808,"AreaSqMiles":51.279999,"AreaAcres":32818.308099610003,"GlobalID":"{908D17F7-0FE6-40EC-8D2F-35A0CA0404C5}","Shape_Length":1.04856320763834,"Shape_Area":0.012492318201597937},"geometry":{"type":"MultiPolygon","coordinates":[[[[-96.286692873999982,30.658259824000027],[-96.286656479999976,30.658254138000075],[-96.286567228999957,30.658287890000054],[-96.286449743999981,30.658296107000069],[-96.286190924999971,30.65825966500006],[-96.285845901999949,30.658203208000032],[-96.285539609999944,30.658140057000026],[-96.285280549999982,30.658070837000025],[-96.285013386999935,30.657989274000045],[-96.28470625999995,30.65788398400008],[-96.284490450999954,30.657804559000056],[-96.284181092999972,30.657687271000043],[-96.283819704999985,30.657550202000039],[-96.283570897999937,30.657457378000061],[-96.283353494999972,30.65737736400007],[-96.283111220999956,30.657289326000068],[-96.282995849999963,30.657247564000045],[-96.282851635999975,30.657195362000039],[-96.282601211999975,30.657103105000033],[-96.282416523999984,30.657035433000033],[-96.282346147999988,30.657009648000042],[-96.282173568999951,30.656951040000024],[-96.281957843999976,30.656877780000059],[-96.28193667499994,30.656871434000038],[-96.281646184999943,30.656784363000043],[-96.281224001999988,30.656676534000042],[-96.280800688999989,30.656589782000026],[-96.28047197099994,30.656528723000065],[-96.280149909999977,30.656472019000034],[-96.279827874999967,30.656415283000058],[-96.279752291999955,30.656362865000062],[-96.279194419999953,30.65625114900007],[-96.278575990999968,30.656075957000041],[-96.27801425499996,30.655918936000035],[-96.277817747999961,30.655837794000036],[-96.277239962999943,30.655598040000029],[-96.276800914999967,30.65541068400006],[-96.276439388999961,30.655249859000037],[-96.276162183999986,30.655131090000054],[-96.27557229699994,30.654863847000058],[-96.274764324999978,30.654504405000068],[-96.274841354999978,30.654371569000034],[-96.274953765999953,30.654177988000072],[-96.275326593999978,30.653541491000055],[-96.275526239999976,30.653199638000046],[-96.276471552999965,30.653612290000069],[-96.276587957999936,30.653519336000045],[-96.276795301999982,30.653353760000073],[-96.277125704999946,30.653089915000066],[-96.277452781999955,30.652828725000063],[-96.277803215999938,30.652548878000061],[-96.277920027999983,30.652455591000034],[-96.278272094999977,30.652174440000067],[-96.278622525999936,30.651894588000062],[-96.278789094999979,30.651761566000062],[-96.278972953999983,30.651614736000056],[-96.279323380999983,30.651334886000029],[-96.279660608999961,30.651062394000064],[-96.279774947999954,30.650966765000078],[-96.279968089999954,30.650795573000039],[-96.28010809999995,30.650671475000024],[-96.280446983,30.650372368000035],[-96.28077538399998,30.650081906000025],[-96.281108841999981,30.649786967000068],[-96.281219215999954,30.649689104000061],[-96.280792439999971,30.649328548000028],[-96.280334308999954,30.649137173000042],[-96.280173424999987,30.64906996600007],[-96.279914734999977,30.648961903000043],[-96.27959156999998,30.648826846000077],[-96.280398290999983,30.648114617000033],[-96.280872783999939,30.648450010000033],[-96.281541689999983,30.648924840000063],[-96.282284010999945,30.647960178000062],[-96.282492308999963,30.647715075000065],[-96.282898240999941,30.647308991000045],[-96.283094731999938,30.647112424000056],[-96.283299405999969,30.646918719000041],[-96.283706214999938,30.646533712000064],[-96.284038732999988,30.646179274000076],[-96.284884359999978,30.645381274000044],[-96.284884297999952,30.645381014000066],[-96.284885018999944,30.645381274000044],[-96.284969713999942,30.645301128000028],[-96.285006080999949,30.645266715000048],[-96.285037435999982,30.645237044000055],[-96.285101464999968,30.645176455000069],[-96.285168939999949,30.645112605000065],[-96.28516962599997,30.645111955000061],[-96.286121391999984,30.644211836000068],[-96.286174484999947,30.644068207000032],[-96.28777460799995,30.64297737000004],[-96.287563551999938,30.642808256000023],[-96.288368559,30.642094017000034],[-96.289173079999955,30.641351244000077],[-96.289979298999981,30.640610911000067],[-96.289981254999987,30.640609102000042],[-96.289421005999941,30.640136624000036],[-96.288657218999958,30.63949251400004],[-96.289016415999981,30.639173850000077],[-96.289478577999944,30.638764092000031],[-96.290654235999966,30.63975554600006],[-96.290784934999976,30.639865762000056],[-96.290874794999979,30.639787044000059],[-96.291608175999954,30.639144593000026],[-96.291709085999969,30.639054005000048],[-96.291968993999944,30.638820685000042],[-96.292424012999959,30.638412207000044],[-96.293185095999945,30.637711630000069],[-96.293229396999948,30.637670851000053],[-96.293476775999977,30.637438864000046],[-96.294027952999954,30.636921980000068],[-96.294088212999952,30.63686830000006],[-96.295171675999939,30.635903154000061],[-96.295319610999968,30.635771369000054],[-96.295322471999953,30.63576807000004],[-96.295322139999939,30.635767763000047],[-96.295575775999964,30.635541487000069],[-96.295599129999971,30.635520652000025],[-96.295543765,30.635490272000027],[-96.295520744999976,30.635460224000042],[-96.295503805999942,30.63540095500008],[-96.295495337999967,30.635371321000036],[-96.29545415399997,30.635311358000024],[-96.295418640999969,30.635300216000076],[-96.295387028999983,30.635290300000065],[-96.295380206999937,30.635287070000061],[-96.295353679999948,30.635274514000059],[-96.295307645999969,30.635214387000076],[-96.295284665999986,30.635125561000052],[-96.295273237999936,30.635111022000046],[-96.295256162999976,30.635078880000037],[-96.29523071899996,30.635048711000024],[-96.295217393999962,30.635018924000065],[-96.295173756999986,30.634958838000045],[-96.295107541999982,30.634916880000048],[-96.295074558999943,30.634892769000032],[-96.295047013999977,30.634886760000029],[-96.295040869,30.634885419000057],[-96.295006825999963,30.634886447000042],[-96.29498009799994,30.634903270000052],[-96.294937159999961,30.634926215000064],[-96.294903307999959,30.634920863000048],[-96.294896000999984,30.634912942000028],[-96.294889015999956,30.63490537000007],[-96.29487557799996,30.634890803000076],[-96.294841904999942,30.634881269000061],[-96.294808128999989,30.634876010000028],[-96.294740573999945,30.634865499000057],[-96.294706884999982,30.634858147000045],[-96.29469493,30.634850966000045],[-96.29467372199997,30.634838226000056],[-96.294631654999989,30.634807200000068],[-96.294610373999944,30.634785919000024],[-96.29454472499998,30.634731436000038],[-96.294524050999939,30.634701366000058],[-96.294496134999974,30.634671092000076],[-96.294480578,30.634657667000056],[-96.294463517999986,30.634642943000074],[-96.294440347999966,30.634612730000072],[-96.294429454999943,30.634583019000047],[-96.294420878999972,30.634553299000061],[-96.294388172999959,30.634525083000028],[-96.294334861999971,30.634491750000052],[-96.294289040999956,30.634456940000064],[-96.294256142999984,30.634430733000045],[-96.294232374999979,30.634415589000071],[-96.294201121999947,30.634398359000045],[-96.294180238999957,30.634394421000025],[-96.294155865999983,30.634389824000039],[-96.294098891999965,30.634380957000076],[-96.29402461799998,30.634377310000048],[-96.293986009999969,30.634386587000051],[-96.293951703999937,30.634393900000077],[-96.293916870999965,30.63441378400006],[-96.293893812999954,30.634442426000078],[-96.293880453999975,30.634471376000079],[-96.293872681999972,30.63451406400003],[-96.293870711999944,30.634529808000025],[-96.293843996999954,30.634587705000058],[-96.293833061999976,30.634616730000062],[-96.293816168999967,30.634643446000041],[-96.293784544999937,30.63467950200004],[-96.293752542999982,30.634713281000074],[-96.29372290699996,30.634738393000077],[-96.293698536999955,30.634755152000025],[-96.293664508999939,30.634764460000042],[-96.293631761999961,30.634767521000072],[-96.293588280999984,30.634767513000043],[-96.29352219499998,30.634759144000043],[-96.29349743299997,30.634752908000053],[-96.293467566999936,30.634743722000053],[-96.293451242999936,30.63473738700003],[-96.293445126999984,30.634735013000068],[-96.29343036399996,30.634730906000073],[-96.29336482399998,30.63471267500006],[-96.293325533999962,30.634705823000047],[-96.293254550999961,30.634684304000075],[-96.293246351999983,30.63468034300007],[-96.293221721999942,30.634668446000035],[-96.293171740999981,30.634638536000068],[-96.293128872999944,30.634614900000031],[-96.293103063,30.634608245000038],[-96.293094255999961,30.634605975000056],[-96.293083208999974,30.634599998000056],[-96.293056151999963,30.634585359000027],[-96.293006952999974,30.634556190000069],[-96.292982456999937,30.634518537000076],[-96.292969144999972,30.634499045000041],[-96.292931530999965,30.634456985000043],[-96.29289689999996,30.634435095000072],[-96.292862580999952,30.634408891000078],[-96.292825568999945,30.634382264000067],[-96.292785506999962,30.634359499000027],[-96.292758008999954,30.634329440000045],[-96.29274075099994,30.634300996000036],[-96.292718178999962,30.634271558000023],[-96.292686669999966,30.634242286000074],[-96.292664084999956,30.634212866000041],[-96.292631917999984,30.634191423000061],[-96.292606939999985,30.634171525000056],[-96.292586764999953,30.634158875000026],[-96.292559475999951,30.634145665000062],[-96.292526899999984,30.634135017000062],[-96.292508961999943,30.634129155000039],[-96.292454820999978,30.634113931000059],[-96.292432201999986,30.634107573000051],[-96.292390661999946,30.634103890000063],[-96.292356354,30.634093218000032],[-96.292328143999953,30.634083257000043],[-96.292316864999975,30.634079274000044],[-96.292312042,30.63407791700007],[-96.292288596999981,30.634071325000036],[-96.292268534999948,30.634065685000053],[-96.292250576999947,30.634058358000061],[-96.292236005999939,30.634052413000063],[-96.292217492999953,30.634047208000027],[-96.29219772099998,30.634041650000029],[-96.292170606999946,30.634034028000031],[-96.292129363999948,30.634026556000038],[-96.292104550999966,30.63401613700006],[-96.292040152999959,30.63398909700004],[-96.291974926999956,30.633966634000046],[-96.291877170999953,30.633930900000053],[-96.291873359999954,30.633930307000071],[-96.291811429999939,30.633920665000062],[-96.291793419999976,30.633911008000041],[-96.291779075999955,30.63390331800008],[-96.291753243999949,30.633896490000041],[-96.291708956999969,30.633884784000031],[-96.29160176299996,30.633848752000063],[-96.291593430999967,30.633845679000046],[-96.291420243999937,30.633781803000034],[-96.29134609099998,30.633746808000069],[-96.291277000999969,30.633703809000053],[-96.29117314299998,30.633664676000024],[-96.291009054999961,30.633556568000074],[-96.290944513999989,30.633517794000056],[-96.290814746999956,30.633456555000066],[-96.290732650999985,30.633408007000071],[-96.290622326999937,30.633311687000059],[-96.290572529999963,30.633267916000079],[-96.29051562099994,30.633222665000062],[-96.29049489,30.633193669000036],[-96.290462484999978,30.633183056000064],[-96.290447240999981,30.633154253000043],[-96.290445348,30.633069041000056],[-96.29045747899994,30.633041040000023],[-96.290479384999969,30.63301763100003],[-96.29050908499994,30.632985894000058],[-96.290537621999988,30.632958408000036],[-96.290604839999958,30.632922674000042],[-96.290666986999952,30.632877323000059],[-96.290718593999941,30.632822177000037],[-96.290804209999976,30.632739715000071],[-96.290872994999972,30.632711073000053],[-96.290894097999967,30.632685776000073],[-96.290956244999961,30.632640422000065],[-96.291043986999966,30.63260934300007],[-96.291157702999953,30.632537951000074],[-96.291276923999988,30.632437621000065],[-96.291284976999975,30.63241355100007],[-96.291295715999979,30.632381447000057],[-96.29130702599997,30.632343955000067],[-96.291321165999989,30.632297093000034],[-96.291357555,30.632213085000046],[-96.291368103999957,30.632181549000052],[-96.291376342999968,30.63215690800007],[-96.291383500999984,30.632121035000068],[-96.291390657999955,30.632085160000031],[-96.291394028999946,30.63205031800004],[-96.291396021999958,30.631949377000069],[-96.291381998999952,30.631892167000046],[-96.291362445999937,30.631834837000042],[-96.291326248999951,30.631823096000062],[-96.29129766799997,30.631813826000041],[-96.291292909,30.631811580000033],[-96.291265449999969,30.63179862100003],[-96.291233958999953,30.631788438000058],[-96.291233035999937,30.631788140000026],[-96.291035949,30.631786676000047],[-96.290904092999938,30.631796722000047],[-96.290764919999958,30.631816994000076],[-96.290705814999967,30.631823605000079],[-96.290578784,30.631819611000026],[-96.290492717999939,30.631812171000036],[-96.290426491999938,30.631824283000071],[-96.290345246999948,30.63184867800004],[-96.290326659999948,30.631854259000079],[-96.290277093999975,30.631875104000073],[-96.290249936999942,30.631887752000068],[-96.290203343999963,30.631908288000034],[-96.290166054999986,30.631941619000031],[-96.290147787999956,30.631963043000042],[-96.290129435999972,30.63200353600007],[-96.290086718999987,30.632061821000036],[-96.290069763999952,30.632078150000041],[-96.290021647999936,30.632104496000068],[-96.289916782999967,30.632135984000058],[-96.289882315999989,30.63213490000004],[-96.289814215999968,30.632112880000079],[-96.289809290999983,30.63211054900006],[-96.289780416999974,30.632096879000073],[-96.289706145999958,30.631945503000054],[-96.289638940999964,30.63190363700005],[-96.28953699799996,30.631865650000066],[-96.289534812999989,30.631865894000043],[-96.289467642999966,30.631873405000078],[-96.289277442999946,30.631882332000032],[-96.289172578999967,30.631913818000044],[-96.289136067999948,30.631907457000068],[-96.289120671999967,30.631898598000078],[-96.289103158999978,30.631888520000075],[-96.289077430999953,30.631823394000037],[-96.289079480999987,30.63172546900006],[-96.289089427999954,30.631702502000053],[-96.289103422999972,30.631643313000041],[-96.289131408999936,30.631524936000062],[-96.289162639999972,30.631466290000049],[-96.289176633999944,30.631407101000036],[-96.289163673999951,30.631168181000078],[-96.289165442999945,30.63098935000005],[-96.289178184999969,30.630959937000057],[-96.289184446999968,30.630811064000056],[-96.289228119999962,30.630696646000047],[-96.289269560999969,30.63056529000005],[-96.289289789999941,30.630509044000064],[-96.289312222999968,30.630446670000026],[-96.289330062999966,30.630388459000073],[-96.289332039999977,30.630322229000058],[-96.289316490999965,30.630292912000073],[-96.289287992999959,30.63026786100005],[-96.289245629999982,30.630176952000056],[-96.289217661999942,30.630091762000063],[-96.289209126999936,30.630061897000076],[-96.289200595999944,30.630032034000067],[-96.289227521999976,30.629973686000028],[-96.289262981999968,30.629945207000048],[-96.289275287999942,30.629922693000026],[-96.289294792999954,30.629887015000065],[-96.289293635999968,30.629798189000041],[-96.289301705999947,30.629710550000027],[-96.289314514999944,30.629650866000077],[-96.289342683999962,30.62956296200008],[-96.289361077999956,30.629474753000068],[-96.289363564999974,30.629415640000047],[-96.289345253999954,30.629385467000077],[-96.289301175999981,30.629321143000027],[-96.289275131999943,30.629307157000028],[-96.289261181999962,30.629306718000066],[-96.289240915999983,30.629306082000028],[-96.28896737499997,30.629293248000067],[-96.288937417999989,30.629281024000079],[-96.288933691999944,30.629279504000067],[-96.288900010999953,30.629265760000067],[-96.288889572999949,30.629263852000065],[-96.288788299999965,30.629245334000075],[-96.28875820199994,30.629236873000025],[-96.288720578999971,30.629226293000045],[-96.288652862,30.629207249000046],[-96.288643939999986,30.629202466000038],[-96.28861935599997,30.629189285000052],[-96.288591809999957,30.629181538000068],[-96.28858549499995,30.629179762000035],[-96.288517708999962,30.629160629000069],[-96.288514918999965,30.629157605000046],[-96.288489746999971,30.629130316000044],[-96.288389001999974,30.629080566000027],[-96.288355673999945,30.629058377000035],[-96.28832136799997,30.62904728500007],[-96.28825427299995,30.629025590000026],[-96.288220057,30.629024513000047],[-96.288185666999937,30.629027661000066],[-96.288117599999964,30.629012685000077],[-96.288111243999936,30.629006780000054],[-96.288056701999949,30.628956102000075],[-96.288030145999983,30.628924523000023],[-96.28795619899995,30.628897828000049],[-96.287954273999958,30.628897767000069],[-96.287921984999969,30.62889675100007],[-96.287680082999941,30.628829945000064],[-96.287645866,30.628828868000028],[-96.287623316999941,30.628816777000054],[-96.287578857999961,30.628792937000071],[-96.28756040199994,30.628790064000043],[-96.287544820999983,30.628787639000052],[-96.287510871999984,30.628780229000029],[-96.287476925999954,30.628772819000062],[-96.287407959999939,30.628783334000047],[-96.287372858999959,30.628803368000035],[-96.287304429999949,30.628801214000077],[-96.28727420499996,30.628788881000048],[-96.287237065999989,30.628773727000066],[-96.287192121999965,30.628747744000066],[-96.287175298999955,30.628729504000034],[-96.287163122999971,30.628669927000033],[-96.287166854999953,30.628581257000064],[-96.287182761999986,30.628552160000027],[-96.287234127999966,30.628494584000066],[-96.287269407999986,30.62847032600007],[-96.28733112499998,30.628433262000044],[-96.28736797,30.628403673000037],[-96.287439712999969,30.628390553000031],[-96.287476124999955,30.628371198000025],[-96.287507042999948,30.628341419000037],[-96.287543668999945,30.62831694700003],[-96.287574585999948,30.628287166000064],[-96.287601231999986,30.628239352000037],[-96.287621711999975,30.628190649000032],[-96.287639003999971,30.62816618800008],[-96.287642878999975,30.62807411700004],[-96.287612392999961,30.62805710300006],[-96.287560995999968,30.628028482000047],[-96.287541673999954,30.627996577000033],[-96.28753482999997,30.627963029000057],[-96.287541669999939,30.627919942000062],[-96.287550985999985,30.627861032000055],[-96.287546353999971,30.627830137000046],[-96.287523944999975,30.627798678000033],[-96.287490980999962,30.627736139000035],[-96.287463938999963,30.627673786000059],[-96.287467816999936,30.62758165300005],[-96.287492808999957,30.627551689000029],[-96.287529001999985,30.627537453000059],[-96.287565631999939,30.627512978000027],[-96.287601179999967,30.627514097000073],[-96.287673355999971,30.627490739000052],[-96.287709766999967,30.627471385000035],[-96.287776878999978,30.627427372000056],[-96.28785013199996,30.627378425000074],[-96.287875123999981,30.627348458000029],[-96.287930815999971,30.627293833000067],[-96.287945411999942,30.627228958000046],[-96.28793727599998,30.627140281000038],[-96.287920792999955,30.627109011000073],[-96.287905602999956,30.627047031000075],[-96.287895611999943,30.627017403000025],[-96.287885620999987,30.626987774000042],[-96.287852812999972,30.626891611000076],[-96.287854104999951,30.626860903000079],[-96.287832991999949,30.626798736000069],[-96.287800025999957,30.626736193000056],[-96.287762426999961,30.62664275800006],[-96.287747236999962,30.626580776000026],[-96.287721488999978,30.626487712000028],[-96.287686427999972,30.626432255000054],[-96.287663572999975,30.626382851000074],[-96.287625982999941,30.626326942000048],[-96.287525795999954,30.626218201000029],[-96.287478327999963,30.626160683000023],[-96.287448299999937,30.626103713000077],[-96.287442002999967,30.626075499000024],[-96.287439837999955,30.626051747000076],[-96.287436885999966,30.626019313000029],[-96.287419498999952,30.625983398000074],[-96.287409266999987,30.625962388000062],[-96.28739240799996,30.625950035000074],[-96.287375466999947,30.625937652000061],[-96.287280218999967,30.625889401000052],[-96.287245639,30.625877827000068],[-96.287177188999976,30.625854916000037],[-96.287152313999968,30.625846591000027],[-96.287048686,30.625819626000066],[-96.28695216899996,30.625801504000037],[-96.28694177999995,30.625793871000042],[-96.286860213999944,30.625733937000064],[-96.286834001999978,30.62570512700006],[-96.28680131699997,30.625647923000031],[-96.286744036999949,30.625594702000058],[-96.286619041999984,30.625500530000068],[-96.286565163999967,30.625470159000031],[-96.286492406999969,30.625427590000072],[-96.286394302999952,30.625387869000065],[-96.28633063999996,30.625355547000026],[-96.286270959999968,30.625300096000046],[-96.286224439999955,30.625268528000049],[-96.286190763999969,30.625245706000044],[-96.286140376,30.625227960000075],[-96.286089990999983,30.62521021200007],[-96.286081319999937,30.625207472000056],[-96.285991527999954,30.625179098000046],[-96.285983361999968,30.625175511000066],[-96.285891115999959,30.625134997000032],[-96.285824855999977,30.625109208000026],[-96.285819139999944,30.625108646000058],[-96.285792562999973,30.625106035000044],[-96.285760087999961,30.625107168000056],[-96.285734667999975,30.625094253000043],[-96.285728318999986,30.625091028000043],[-96.285704607999946,30.625062326000034],[-96.285679444999971,30.625013688000024],[-96.285641515999941,30.624961216000031],[-96.285601500999974,30.624903954000047],[-96.285538297999949,30.624865309000029],[-96.285462265999968,30.62481086400004],[-96.285412917999963,30.624776239000028],[-96.285377520999987,30.624751630000048],[-96.28530903799998,30.624719307000078],[-96.285205696999981,30.624681431000056],[-96.285171962999982,30.624650767000048],[-96.285137713999973,30.624597596000058],[-96.285120718999963,30.624571157000048],[-96.285092055999939,30.62454006300004],[-96.285029505999944,30.62448640100007],[-96.285010632999956,30.62447383500006],[-96.284995477999985,30.624463715000047],[-96.284938109999985,30.62440594900005],[-96.284892533999937,30.624359126000058],[-96.284846177999952,30.624313874000052],[-96.284812128999988,30.624287153000068],[-96.284608029999958,30.624188691000029],[-96.284573698999964,30.624174680000067],[-96.284511105999968,30.62412099200003],[-96.284402693999937,30.624055764000047],[-96.284306741999956,30.623998150000034],[-96.284254425999961,30.623936165000032],[-96.28418709999994,30.623878064000053],[-96.284097953999947,30.623837898000033],[-96.284082713999965,30.623834932000079],[-96.284009925999953,30.623820767000041],[-96.283930575999989,30.623809650000055],[-96.28378287399994,30.623804034000045],[-96.283675222999989,30.623831773000063],[-96.283532507999951,30.623826476000033],[-96.283506711999962,30.62381922000003],[-96.28343237699994,30.623793958000078],[-96.283397865999973,30.623784252000064],[-96.283380173999944,30.623777002000054],[-96.283363513999973,30.623770175000061],[-96.283339892999948,30.623739327000067],[-96.283331199999964,30.623708886000031],[-96.283302574999936,30.623677815000065],[-96.283250276999979,30.623615818000076],[-96.283227523999983,30.623597674000052],[-96.283148591999975,30.623543674000075],[-96.28311426099998,30.623529663000056],[-96.283045782999977,30.62349733800005],[-96.28300756799996,30.62346804200007],[-96.282907463999948,30.623419285000068],[-96.282771688999958,30.62337233900007],[-96.282693064999989,30.623344007000071],[-96.282590256999981,30.623297672000035],[-96.282567209999968,30.623291189000042],[-96.282521235,30.623278259000074],[-96.282452031999981,30.623263147000046],[-96.282415837999963,30.623250678000034],[-96.282383191999941,30.623239430000069],[-96.282314348999989,30.623215713000036],[-96.282280018999984,30.623201702000074],[-96.282261356999982,30.623196454000038],[-96.282239950999951,30.623190432000058],[-96.282229002999941,30.623185079000052],[-96.282177030999947,30.623159668000028],[-96.282073862999937,30.623121941000079],[-96.282064316999936,30.623119256000052],[-96.28203935099998,30.623112234000075],[-96.28202143599998,30.623104923000028],[-96.281970692999948,30.623084212000037],[-96.281952016999981,30.623078960000043],[-96.281936181,30.623074506000023],[-96.281882352999958,30.623070645000041],[-96.28181206499994,30.623095977000048],[-96.281778221999957,30.623116287000073],[-96.281730698,30.623200287000031],[-96.281730893999963,30.623232533000078],[-96.281731043999969,30.623257298000055],[-96.281740439999965,30.623278967000033],[-96.281732935999969,30.623342856000079],[-96.281704282999954,30.623370452000074],[-96.281678377,30.623398135000059],[-96.28160494399998,30.62350981700007],[-96.281537455999967,30.623545690000071],[-96.281437021999977,30.623580524000033],[-96.281403975999979,30.623581857000033],[-96.281338485999981,30.623570293000057],[-96.281314891999955,30.623560036000072],[-96.281273696999961,30.623542128000054],[-96.281241656999953,30.623519719000058],[-96.281208527999979,30.623480759000074],[-96.281191887999967,30.623461175000045],[-96.281170777999989,30.623375011000064],[-96.281171136999944,30.623315019000074],[-96.281175632999975,30.62329599900005],[-96.281210915999964,30.623205281000025],[-96.281200787999978,30.623119463000023],[-96.281173166999963,30.623068247000049],[-96.281142441999975,30.62300362600007],[-96.281095423999943,30.62294518300007],[-96.281063279999955,30.622925133000024],[-96.281031656999971,30.622915625000076],[-96.280992699999956,30.622903910000048],[-96.280960067999956,30.622893288000057],[-96.280959010999936,30.622892215000036],[-96.280931151999937,30.622863971000072],[-96.280888009999956,30.622777090000056],[-96.280823968999982,30.622732304000067],[-96.280770035999979,30.622673340000063],[-96.280716246999987,30.622639819000028],[-96.280643795999936,30.622613706000038],[-96.280553528999974,30.622572114000036],[-96.280479321999962,30.622540700000059],[-96.280354662999969,30.62249339300007],[-96.280331326999942,30.622485846000075],[-96.280245820999937,30.622458191000078],[-96.280240893999974,30.622455862000038],[-96.280173718999947,30.622424101000036],[-96.28013046999996,30.622359241000026],[-96.280086904999962,30.622302267000066],[-96.280043668999951,30.622237360000042],[-96.280027980999989,30.622173323000027],[-96.280021474999955,30.622109576000071],[-96.280013630999974,30.622077559000047],[-96.280025485999943,30.622014390000061],[-96.280095896999967,30.621917864000068],[-96.280133170999989,30.621858928000051],[-96.280143289999955,30.621828686000072],[-96.280154207999942,30.621796049000068],[-96.280175244999953,30.621733170000027],[-96.280196284999988,30.621670290000054],[-96.280204574999971,30.621601422000026],[-96.280196940999986,30.621539146000032],[-96.280149219999942,30.621478179000064],[-96.280096803999982,30.621412984000074],[-96.280070431999945,30.621380230000057],[-96.27997344399995,30.621290104000025],[-96.279937412999971,30.621239551000031],[-96.279903836999949,30.621192445000077],[-96.279899773999944,30.621180478000042],[-96.279871121999975,30.621096100000045],[-96.279850077,30.621032815000035],[-96.279812753999977,30.620971397000062],[-96.279739202999963,30.620900412000026],[-96.279651282999964,30.620858827000063],[-96.279555234999975,30.620821177000039],[-96.27954675899997,30.620819619000031],[-96.279469657999982,30.620805442000062],[-96.279395871999952,30.620811058000072],[-96.27933047,30.620848387000024],[-96.279305080999961,30.62087824300005],[-96.279240410999989,30.620910386000048],[-96.279182467999988,30.620924656000057],[-96.279082467999956,30.620926634000057],[-96.27901374299995,30.620934035000062],[-96.278930174999971,30.620920726000065],[-96.278828800999975,30.620896334000065],[-96.278735306999977,30.620872501000065],[-96.27868588299998,30.62086015400007],[-96.278649493999978,30.620851064000078],[-96.278643242999976,30.620846081000025],[-96.278587294999966,30.620801481000058],[-96.278562328999953,30.620764752000071],[-96.278453854999952,30.620693981000045],[-96.278417796999975,30.620676958000047],[-96.278396714999985,30.620671691000041],[-96.278381406999983,30.620667866000076],[-96.278375518999951,30.620662976000062],[-96.278355845999954,30.62064663700005],[-96.278291933,30.62060944600006],[-96.278256208999949,30.620584490000056],[-96.278152263999971,30.620542017000048],[-96.278041984999959,30.620501484000044],[-96.277907830999936,30.620436745000063],[-96.277843473999951,30.62040623200005],[-96.277817719999973,30.620391307000034],[-96.27778763799995,30.62036334700008],[-96.277727914999957,30.620326985000077],[-96.277659890999985,30.620299257000056],[-96.277587092999966,30.620273057000077],[-96.277558500999987,30.620263181000041],[-96.277462960999969,30.620209985000031],[-96.277174504999948,30.620073800000057],[-96.277095483999972,30.620046041000023],[-96.277088874999947,30.620044],[-96.277019248999977,30.620022498000026],[-96.277015365999944,30.62002003200007],[-96.276960125999949,30.619984930000044],[-96.276875698999959,30.619911344000059],[-96.276842818999967,30.619872727000029],[-96.276788497999974,30.619834755000056],[-96.276735322999969,30.619805771000074],[-96.276664212999947,30.619747927000049],[-96.276557049999951,30.619673060000025],[-96.276504386999989,30.619644421000032],[-96.276413967999986,30.619581690000075],[-96.276359494999951,30.619540407000045],[-96.276288807999947,30.619513261000066],[-96.276254493999943,30.619481372000052],[-96.276220181999975,30.619449485000075],[-96.276145226999972,30.619354162000036],[-96.276074947999973,30.619320931000061],[-96.276005208999948,30.619275394000056],[-96.275934897999946,30.619242145000044],[-96.275859621999984,30.619159359000037],[-96.275850842999944,30.619112650000034],[-96.275842066999985,30.619065939000052],[-96.275824510999939,30.618972520000057],[-96.275842734999969,30.618880231000048],[-96.275899650999975,30.618782680000038],[-96.275935131999972,30.618728369000053],[-96.27601750599996,30.61864429700006],[-96.276070208999954,30.618584048000059],[-96.276138528,30.618493340000043],[-96.276148181999986,30.618431643000065],[-96.276079078999942,30.618373834000067],[-96.276009601999988,30.61832211400008],[-96.275977155999954,30.618312575000061],[-96.275868039999978,30.618280496000068],[-96.275847780999982,30.618272732000037],[-96.275762214999986,30.618239936000066],[-96.27573492199997,30.618208203000052],[-96.275665462999939,30.61815647700007],[-96.275559681999937,30.618115989000046],[-96.275535595999941,30.618108198000073],[-96.275474849999966,30.618088549000049],[-96.275472810999986,30.618087155000069],[-96.275370374999966,30.618017150000071],[-96.275273667999954,30.617933677000053],[-96.275192921999974,30.617807244000062],[-96.275182358999984,30.617777405000027],[-96.275175002999958,30.617756611000061],[-96.275163619999944,30.617724456000076],[-96.27517906199995,30.617710490000036],[-96.275159162999955,30.61769877200004],[-96.275176538999972,30.617606144000035],[-96.275218973999984,30.617529469000033],[-96.275252971999976,30.617470082000068],[-96.275288598999964,30.61740784400007],[-96.27536407499997,30.617317363000041],[-96.275439596999945,30.617254560000049],[-96.275537233999955,30.617173362000074],[-96.275518723999937,30.617017825000062],[-96.275503916,30.616893397000069],[-96.275527391999958,30.616771972000038],[-96.275494328999969,30.616709223000043],[-96.275507144999949,30.616617070000075],[-96.275555621999956,30.616526044000068],[-96.275677371999961,30.616391053000029],[-96.27579475999994,30.616147942000055],[-96.275875181999936,30.61593451400006],[-96.275888676999955,30.615731147000076],[-96.275899698999979,30.615565061000041],[-96.275944642999946,30.615134549000061],[-96.276002033999987,30.615043802000059],[-96.276075307999974,30.614999838000074],[-96.276164376999986,30.615002577000041],[-96.276333575999956,30.615021284000079],[-96.276567051999962,30.615045191000036],[-96.276601495999955,30.614800475000038],[-96.276862497999957,30.614538755000069],[-96.276898484999947,30.614532179000037],[-96.277152986999965,30.614424513000074],[-96.277291264999974,30.614320892000023],[-96.277359388999969,30.614199555000027],[-96.277400409999984,30.614114598000072],[-96.277394691999973,30.613855661000059],[-96.27734553099998,30.613739105000036],[-96.277320331999988,30.613712328000076],[-96.277229773999977,30.613627788000031],[-96.277058143999966,30.613550283000052],[-96.27693960299996,30.613402852000036],[-96.276832192999962,30.613288125000054],[-96.276701937999974,30.613219254000057],[-96.276688104999948,30.61321870200004],[-96.276270075999946,30.613202032000061],[-96.276101862999951,30.613344070000039],[-96.275985766999952,30.613433849000046],[-96.275790292999943,30.613531900000055],[-96.275704336,30.613597468000023],[-96.275638476999973,30.613581015000079],[-96.275504511999941,30.613616135000029],[-96.275399275999973,30.613630968000052],[-96.274750128999983,30.613538597000058],[-96.274725170999943,30.613527704000035],[-96.274462632999985,30.613413128000047],[-96.274024536999946,30.613250687000061],[-96.274021614,30.613250595000068],[-96.273835098999939,30.613244706000046],[-96.273620570999981,30.613254084000062],[-96.272754370999962,30.613401180000039],[-96.272530554999946,30.61347184400006],[-96.272447411999963,30.613498094000079],[-96.272278557999982,30.613512143000037],[-96.27217909999996,30.613476694000042],[-96.272012017999941,30.61344880300004],[-96.271826101999977,30.613531833000025],[-96.271651525999971,30.613681385000064],[-96.271616746999939,30.61379658900006],[-96.271627039999942,30.613809893000052],[-96.271709078999947,30.613915931000065],[-96.271852944999978,30.614042973000039],[-96.271858107999947,30.614050219000035],[-96.271944893999944,30.614172015000065],[-96.271933579999939,30.614215807000051],[-96.27192254199997,30.614258535000033],[-96.271826462999968,30.614320110000051],[-96.271758550999948,30.614317963000076],[-96.271721907999961,30.614316806000033],[-96.271621493999987,30.614303945000074],[-96.271547717999965,30.614280074000078],[-96.271488698999974,30.614260981000029],[-96.271321480999973,30.614236313000049],[-96.271185960999958,30.614257876000067],[-96.271051256999954,30.614260080000065],[-96.270880225999974,30.614325750000035],[-96.270715976999952,30.614407784000036],[-96.270683375999965,30.614471368000068],[-96.270526252999957,30.614643199000056],[-96.270395189999988,30.614743322000038],[-96.270255832999965,30.614815198000031],[-96.270026974999951,30.614943391000054],[-96.269959150999966,30.615002661000062],[-96.269909240999937,30.615046278000079],[-96.269815824999966,30.615079106000053],[-96.269773833999977,30.615093863000027],[-96.269671240999969,30.615154010000026],[-96.269499974999974,30.615260969000076],[-96.26918871099997,30.615432374000079],[-96.269158537999942,30.615448989000072],[-96.269057646999954,30.61546885000007],[-96.268891973999985,30.615443443000061],[-96.268833773999972,30.615401274000078],[-96.268792861999941,30.615342344000055],[-96.268774414999939,30.615226506000056],[-96.268777089999958,30.61516320000004],[-96.26878579199996,30.614957305000075],[-96.268789251999976,30.614875450000056],[-96.268690869999944,30.614757084000075],[-96.268653559999962,30.614656688000025],[-96.268613303999985,30.614583384000071],[-96.268572976999963,30.614510043000053],[-96.268508387999987,30.614461930000061],[-96.268309969999962,30.614343283000039],[-96.26807107999997,30.614173266000023],[-96.26802182299997,30.614138210000078],[-96.267869022999946,30.613966287000039],[-96.267888366999955,30.613804993000031],[-96.267966412999954,30.613652105000028],[-96.268000489999963,30.613585636000039],[-96.268010022999988,30.613567043000046],[-96.26802276799998,30.613423377000061],[-96.26791534399996,30.613281678000078],[-96.267623740999966,30.613076371000034],[-96.267521392,30.61298122900007],[-96.267383256999949,30.612825791000034],[-96.267250229999945,30.612765047000039],[-96.267052353999986,30.612712686000066],[-96.266854232999947,30.612666081000043],[-96.26672027099994,30.612585600000045],[-96.266528493999942,30.612482896000074],[-96.266362945999958,30.612454606000028],[-96.266195940999978,30.612460849000058],[-96.266162392999945,30.612465550000024],[-96.266094566999982,30.612492219000046],[-96.266026986999975,30.612513130000025],[-96.26592610299997,30.612532991000023],[-96.265860431999954,30.612542819000055],[-96.265792395999938,30.612535534000074],[-96.265726522999955,30.612520910000057],[-96.265628068999945,30.612483220000058],[-96.265595254999937,30.612470657000074],[-96.265529859999958,30.612439774000052],[-96.265497043999972,30.612427211000067],[-96.265398349999941,30.612395272000072],[-96.265332961999945,30.612364392000075],[-96.265268297999967,30.612316243000066],[-96.265210299999978,30.612268306000033],[-96.26514539599998,30.612225913000032],[-96.26504670199995,30.612193975000025],[-96.265007222999941,30.612181202000045],[-96.264940857999989,30.612173338000048],[-96.264841679999961,30.612152911000067],[-96.264703367999971,30.612119560000053],[-96.264676620999978,30.612113110000053],[-96.264636974999974,30.612105308000025],[-96.264467250999985,30.612071909000065],[-96.264375248999954,30.612063435000039],[-96.264313263999952,30.612048467000079],[-96.264239933999988,30.612030137000033],[-96.264193793999937,30.612017150000042],[-96.264128892999963,30.611974758000031],[-96.263964564,30.611917692000077],[-96.263931626999977,30.611908004000043],[-96.263898687999983,30.611898317000055],[-96.263855628999977,30.611885655000037],[-96.263832810999986,30.611878945000058],[-96.263803463999977,30.611865085000034],[-96.26370203099998,30.611817178000024],[-96.263663315999963,30.611809821000065],[-96.263629249999951,30.611803348000024],[-96.263547864999964,30.611782993000077],[-96.263522272999978,30.611776433000045],[-96.263502937999988,30.611768294000058],[-96.26308148399994,30.611590887000034],[-96.262733632999982,30.61144414100005],[-96.262547121999944,30.611365459000069],[-96.262440692999974,30.61132056100007],[-96.262252719999935,30.611169307000068],[-96.26188865499995,30.610876358000041],[-96.261522236999951,30.610700521000069],[-96.261309209999979,30.610598292000077],[-96.261293998999975,30.610595962000048],[-96.261249361999944,30.610589124000057],[-96.261244322999971,30.61058140800003],[-96.260921874999951,30.610087599000053],[-96.261009382999987,30.610017822000032],[-96.261804685999948,30.60969538300003],[-96.26171093399995,30.609377929000061],[-96.261302150999938,30.609183888000075],[-96.261333994999973,30.609024846000068],[-96.261357960999987,30.608905662000041],[-96.26137713199995,30.608810314000038],[-96.261562710999954,30.608595767000054],[-96.261973194999939,30.608649334000063],[-96.262131145999945,30.608496093000042],[-96.262242172999947,30.608564300000069],[-96.262244970999973,30.608789607000062],[-96.262445281999987,30.608891751000044],[-96.262449911999965,30.60888804700005],[-96.262481747999971,30.608904281000036],[-96.263006153999982,30.608484657000076],[-96.263311775999966,30.608274717000029],[-96.262927597999976,30.608069536000073],[-96.262789150999936,30.60783138000005],[-96.26282247599994,30.607712478000053],[-96.262782982999965,30.607710745000077],[-96.262406320999958,30.607694223000067],[-96.262412499999982,30.60768356400007],[-96.26262006099995,30.607325553000067],[-96.262283798999988,30.606995142000073],[-96.262279,30.606691563000027],[-96.262542184999973,30.606650956000067],[-96.262690859999964,30.606166593000069],[-96.263157844999967,30.605881381000074],[-96.263161699999955,30.605879026000025],[-96.263455631999989,30.606013177000079],[-96.263727905999986,30.606115626000076],[-96.263763664999942,30.606129081000063],[-96.264068698999949,30.605729584000073],[-96.263902074999976,30.605217077000077],[-96.263870533999977,30.605219693000038],[-96.263193395999963,30.605275842000026],[-96.263162099999988,30.605262884000069],[-96.262928460999944,30.605166145000055],[-96.262699879999957,30.604964487000075],[-96.262509102999957,30.604796180000051],[-96.262326016999964,30.604679200000078],[-96.262314443999969,30.604682576000073],[-96.261986007999951,30.604778375000024],[-96.261950777999971,30.604765486000076],[-96.261578300999986,30.604629205000037],[-96.261566563999963,30.604625723000026],[-96.261109036999983,30.604489964000038],[-96.261107392999975,30.604487767000023],[-96.26090697099994,30.604220056000031],[-96.260470715999986,30.604066390000071],[-96.260230327999977,30.603835573000026],[-96.260334182999941,30.603592677000051],[-96.260332367,30.603531969000073],[-96.260330912999962,30.603483401000062],[-96.260368293999989,30.603188129000046],[-96.260372472999961,30.603165125000032],[-96.260407354999984,30.602973071000065],[-96.260474725999984,30.602895007000029],[-96.26087451099994,30.602728368000044],[-96.261201568999979,30.602821297000048],[-96.261597715999983,30.602699937000068],[-96.261723390999975,30.602346281000052],[-96.262049924999985,30.602075052000032],[-96.261681941999939,30.60174939500007],[-96.261597043999984,30.601448534000042],[-96.261560864999979,30.601437023000074],[-96.261207171999956,30.601324484000031],[-96.261206953999988,30.601323487000059],[-96.261121379999963,30.600931527000057],[-96.260394278999968,30.600594663000038],[-96.26026845399997,30.600164348000078],[-96.260134833999984,30.599952380000047],[-96.259922386999961,30.599614702000054],[-96.259893015999978,30.599613452000028],[-96.259175380999977,30.599582895000026],[-96.258463631999973,30.59935648700008],[-96.257997216999968,30.599242900000036],[-96.257645839999952,30.599197280000055],[-96.257124015999977,30.599091811000051],[-96.25673513199996,30.599057774000073],[-96.256511759999967,30.59929160400003],[-96.256347889999972,30.599525726000024],[-96.256143048999945,30.599818373000062],[-96.256213650999939,30.600097032000065],[-96.256617109,30.600278330000037],[-96.256646573999944,30.600291570000024],[-96.25666539599996,30.600289659000055],[-96.257031703999985,30.600252603000058],[-96.257055472,30.600250199000072],[-96.257496915,30.600769356000058],[-96.257523345999971,30.600832066000066],[-96.257626904999938,30.601077772000053],[-96.257502293999949,30.601283286000069],[-96.257011103999957,30.60130330800007],[-96.256713170999944,30.601354912000033],[-96.256535768,30.601441933000046],[-96.256379764999963,30.601518454000029],[-96.256250073999979,30.601517325000032],[-96.255971967999983,30.601528644000041],[-96.255958680999981,30.601515171000074],[-96.255363063999937,30.600911229000076],[-96.254732738999962,30.600624418000052],[-96.254611412999964,30.600470917000052],[-96.254810889999987,30.600270683000076],[-96.254906063999954,30.600175146000026],[-96.254993895999974,30.599945563000063],[-96.254946116999974,30.599734832000024],[-96.254888343999937,30.599649240000076],[-96.254740347999984,30.599429980000025],[-96.254586726999946,30.599262344000067],[-96.254397498999936,30.599088803000029],[-96.254374727999959,30.599015090000023],[-96.254358952999951,30.598964023000065],[-96.25427198899996,30.598925241000074],[-96.254210352999962,30.598897755000053],[-96.254098071999977,30.598849648000055],[-96.254024130999937,30.598775208000063],[-96.253908638999974,30.598524916000031],[-96.253803697999956,30.598297492000029],[-96.253656498999987,30.598120161000054],[-96.253550730999962,30.597992774000033],[-96.253279328999952,30.59796357700003],[-96.252771025999948,30.598417857000072],[-96.252603262999969,30.598479747000056],[-96.252559303999988,30.598464522000029],[-96.252351140999963,30.598392367000031],[-96.252338369999961,30.598031295000055],[-96.252333036999971,30.597883978000027],[-96.252188380999939,30.597750080000026],[-96.252086759999941,30.597695522000038],[-96.251885413999958,30.597586395000064],[-96.251202151999962,30.59759669500005],[-96.251155881999978,30.597597393000058],[-96.250974849999977,30.597572199000069],[-96.250504379999938,30.597359123000047],[-96.250374901999976,30.597195990000046],[-96.250224601999946,30.596833935000063],[-96.250134972999945,30.596785385000032],[-96.250035737999951,30.596731678000026],[-96.24978656899998,30.59670918300003],[-96.249555856999962,30.596572668000078],[-96.249385906999976,30.596637050000027],[-96.249249673999941,30.596656070000051],[-96.249158236999961,30.59673936300004],[-96.248922314999959,30.596715198000027],[-96.248614265999947,30.596808503000034],[-96.248489856,30.596818265000024],[-96.248232171999973,30.59673099500003],[-96.248020660999941,30.596654823000051],[-96.247430899999983,30.596604810000031],[-96.247248169999978,30.596667482000043],[-96.247087739999984,30.596795795000048],[-96.24698624499996,30.596973543000047],[-96.246739176999938,30.597148304000029],[-96.246539388999963,30.597153583000079],[-96.246244867999962,30.597048509000047],[-96.246089089999941,30.597131550000029],[-96.245971122999947,30.597221569000055],[-96.245896277999975,30.597214242000064],[-96.245811393999986,30.597136179000074],[-96.24553117499994,30.597193428000026],[-96.24530090899998,30.597413839000069],[-96.245107080999958,30.597415066000053],[-96.244835454999986,30.597235999000077],[-96.244719763999967,30.597079742000062],[-96.24476193199996,30.597002976000056],[-96.244959227999971,30.596882892000053],[-96.244945317999964,30.596681812000043],[-96.245042328999943,30.596386348000067],[-96.245086932999982,30.596291416000042],[-96.245011380999983,30.596214059000033],[-96.244926905999989,30.596085671000026],[-96.244745413999965,30.595859887000074],[-96.24471099699997,30.595826432000024],[-96.24469000199997,30.595771469000056],[-96.244654045999937,30.595676868000055],[-96.244527646999984,30.595526622000079],[-96.244409453999936,30.595393383000044],[-96.24430009699995,30.595275844000071],[-96.244196453999962,30.595166837000079],[-96.244092807999948,30.595057826000073],[-96.243981316999964,30.59491511300007],[-96.243947469999966,30.594871438000041],[-96.243913641999939,30.594827836000036],[-96.243437149999977,30.594658781000078],[-96.243247463999978,30.594712454000046],[-96.243136860999982,30.594741655000064],[-96.243059027999948,30.594778716000064],[-96.243008459999942,30.594803869000032],[-96.242821204999984,30.594892406000042],[-96.24245240099998,30.595145180000031],[-96.242373998999938,30.595468312000037],[-96.241888466999967,30.595266600000059],[-96.241662073999976,30.595449716000076],[-96.241477303999943,30.595599161000052],[-96.240970738999977,30.595715039000027],[-96.240547325999955,30.595536957000036],[-96.240190980999955,30.595223107000038],[-96.240130065999949,30.594801079000035],[-96.239941899999963,30.594537007000042],[-96.239742039999953,30.59481603200004],[-96.239330389999964,30.595035542000062],[-96.239007967999953,30.594948316000057],[-96.238773450999986,30.594658271000071],[-96.238571588999946,30.594408638000061],[-96.238010934999977,30.593904960000032],[-96.237661879999962,30.593665138000063],[-96.237468226999965,30.593719540000052],[-96.237397361999967,30.593739447000075],[-96.237072256999966,30.594401432000041],[-96.236745386999985,30.594863021000037],[-96.236327336999977,30.594962231000068],[-96.235575157999961,30.594711109000059],[-96.235757987999989,30.594518937000032],[-96.235997586999986,30.59426737800004],[-96.236079320999977,30.594074887000033],[-96.236027422999939,30.59365495000003],[-96.235383739999975,30.593601131000071],[-96.234925553999972,30.593429049000065],[-96.234694064999985,30.593589805000079],[-96.234407937999947,30.594183866000037],[-96.234139222999943,30.594196995000061],[-96.233848894999937,30.593753101000061],[-96.233606107999947,30.593775270000037],[-96.233223672999941,30.593873471000052],[-96.232622889999959,30.593546050000043],[-96.232211349999943,30.592913897000074],[-96.23170104999997,30.592619901000035],[-96.231365549999964,30.591930341000079],[-96.231694227999981,30.591360784000074],[-96.23190501,30.590792430000079],[-96.231775484999957,30.590359195000076],[-96.231854967999936,30.590156624000031],[-96.23204555999996,30.589670880000028],[-96.232333448999952,30.589277226000036],[-96.23242748499996,30.588786267000046],[-96.232042947999958,30.588365374000034],[-96.23204059699998,30.588339294000036],[-96.232004479999944,30.587938318000056],[-96.231970330999957,30.58756036300008],[-96.231371797999941,30.587077022000074],[-96.230741555999941,30.586654594000038],[-96.230625212999939,30.586102716000028],[-96.230771951999941,30.585680556000057],[-96.226996177999979,30.589086864000024],[-96.224601481999969,30.591247175000035],[-96.224478946999966,30.591357712000047],[-96.224344733999942,30.591478795000057],[-96.224202193999986,30.591731653000068],[-96.223952321999946,30.592251003000058],[-96.223718379,30.592846835000046],[-96.223598488999983,30.593332726000028],[-96.222844527999939,30.597415028000057],[-96.223384343999953,30.597859594000056],[-96.223234247999983,30.597998701000051],[-96.222570233999988,30.598607077000054],[-96.222520074999977,30.598808924000025],[-96.222348440999951,30.599244641000041],[-96.222192720999942,30.599626631000035],[-96.222038683999983,30.599957848000031],[-96.221829268999954,30.600353115000075],[-96.221689501999947,30.600604710000027],[-96.221589976999951,30.600774080000065],[-96.221097826999937,30.601604541000029],[-96.220179764999955,30.603155872000059],[-96.219310981999968,30.604623883000045],[-96.218500450999954,30.605993411000043],[-96.217743023999958,30.607273174000056],[-96.217180066999958,30.608224329000052],[-96.216404413999953,30.609534819000032],[-96.215841152999985,30.610486442000024],[-96.215596986999969,30.610898948000056],[-96.21426914999995,30.613142201000073],[-96.213284742999974,30.61479393500008],[-96.212959174,30.615340192000076],[-96.211917258999961,30.616741689000037],[-96.211001671999952,30.61770892800007],[-96.206729654999947,30.621426188000044],[-96.207624419999945,30.622183805000077],[-96.205738101999941,30.623903541000061],[-96.204061736999961,30.622037895000062],[-96.203901247999966,30.621859420000078],[-96.203592549999939,30.621449107000046],[-96.203415205999988,30.621139529000061],[-96.202895588,30.620561821000024],[-96.20266952999998,30.620310472000028],[-96.20414879599997,30.619090210000024],[-96.206275544999983,30.617272578000041],[-96.207985439999959,30.615769255000032],[-96.20902,30.614694438000072],[-96.209557966999967,30.61397418100006],[-96.210917755999958,30.61171461400005],[-96.213666750999948,30.607070594000049],[-96.215390260999982,30.60415871500004],[-96.215429620999942,30.604092212000069],[-96.215517967999972,30.603942949000043],[-96.215528669999969,30.603924868000036],[-96.216522354999938,30.602245931000027],[-96.217785534999962,30.600111561000062],[-96.217801540999972,30.600084515000049],[-96.218364949999966,30.599132503000078],[-96.218651530999978,30.598589096000069],[-96.218695589,30.598487933000058],[-96.218773271999964,30.598309559000029],[-96.218851386999972,30.598085224000044],[-96.21897241399995,30.597737656000049],[-96.219197482999959,30.596681175000072],[-96.219391687999973,30.595620943000029],[-96.21956079399996,30.594696997000028],[-96.219023862999961,30.594252071000028],[-96.219762969999977,30.593593890000079],[-96.219886041999985,30.592931424000028],[-96.219965486999968,30.59257696800006],[-96.220424543999968,30.591189553000049],[-96.22064022099994,30.59075987500006],[-96.221006039999963,30.590031082000053],[-96.221864495999966,30.588793720000069],[-96.222634522999954,30.587940186000026],[-96.223666669999943,30.586994164000032],[-96.228414726999972,30.582735883000055],[-96.228385413999945,30.582688142000052],[-96.228432830999964,30.582457446000035],[-96.228468422999981,30.582284293000043],[-96.228509366999958,30.582084464000047],[-96.227712551999957,30.58236462900004],[-96.22729295399995,30.581929046000027],[-96.22703045999998,30.581908287000033],[-96.226939461999962,30.581670747000032],[-96.226582232999988,30.581724597000061],[-96.226387443999954,30.581363065000062],[-96.226554068999974,30.581293457000072],[-96.226783982999962,30.581197413000041],[-96.226659054999971,30.580940645000055],[-96.226296677999983,30.580751053000029],[-96.226269785999989,30.580736988000069],[-96.226159629999984,30.580679367000073],[-96.225742385999979,30.580461116000038],[-96.225688649999938,30.580433007000067],[-96.225334014999987,30.580248121000068],[-96.225218876999975,30.580185429000039],[-96.225042064999968,30.580193623000071],[-96.22500204399995,30.580379292000032],[-96.224671871999988,30.580447322000055],[-96.224570324999945,30.580777330000046],[-96.224092263999978,30.581117218000031],[-96.223874636999938,30.581062867000071],[-96.223706934999939,30.581020731000024],[-96.223197992999985,30.580892854000069],[-96.223027153999965,30.580892041000027],[-96.222863527999948,30.580891260000044],[-96.222509168999977,30.580663168000058],[-96.222332643999948,30.580628281000031],[-96.222133108999969,30.580590751000045],[-96.222040130999972,30.580513171000064],[-96.221638742999971,30.580178244000024],[-96.22153013999997,30.580087328000047],[-96.221231553999985,30.580031541000039],[-96.221216969999944,30.580019099000026],[-96.221030806999977,30.579860308000036],[-96.219936357999984,30.579385822000063],[-96.219715482999959,30.579290061000052],[-96.219392449999987,30.579027967000059],[-96.219323413999973,30.578994549000072],[-96.21906009099996,30.578844411000034],[-96.218819222999969,30.578707070000064],[-96.218716665999978,30.578648595000061],[-96.218597766999949,30.578563425000027],[-96.218551958999967,30.578526147000048],[-96.218263534999949,30.578295455000045],[-96.218055871999979,30.578317201000061],[-96.218025606999959,30.578310043000045],[-96.217686883999988,30.578171859000065],[-96.217575095999962,30.578123297000047],[-96.217184885999984,30.577953778000051],[-96.216388753999979,30.577548773000046],[-96.216273949999959,30.577490513000043],[-96.215931706,30.577382084000078],[-96.215126529999964,30.577126935000024],[-96.215120273999958,30.576839458000052],[-96.214896585999952,30.576637457000061],[-96.214600389999987,30.57636997700007],[-96.214580178999938,30.576228395000044],[-96.214085093999984,30.575980452000067],[-96.213907752999944,30.575891612000078],[-96.213698096999963,30.575643291000063],[-96.213652963999948,30.575261101000024],[-96.213178703999972,30.574887300000057],[-96.212883818999956,30.574954612000056],[-96.212783055999978,30.575030420000076],[-96.212561760999961,30.575013802000058],[-96.212320382999962,30.57480836600007],[-96.211895544999948,30.57442224600004],[-96.211614036999947,30.574382993000029],[-96.211444957999959,30.574384520000024],[-96.211176322999961,30.574907727000038],[-96.210891937999975,30.574848676000045],[-96.210477387999958,30.574762600000042],[-96.210088027999973,30.574639621000074],[-96.210114301999965,30.574493577000055],[-96.210140564999961,30.574347584000066],[-96.209230229999946,30.574248519000037],[-96.208974287999979,30.574479294000071],[-96.208415829999979,30.573824322000064],[-96.208264158999953,30.574078416000077],[-96.207846891999964,30.573873738000032],[-96.207722968999974,30.573726879000048],[-96.207542405999959,30.573731890000033],[-96.207239358999971,30.573740473000043],[-96.207039383999984,30.573818432000053],[-96.206901397999957,30.57369574300003],[-96.206791041999963,30.573597620000044],[-96.20646493299995,30.57373577900006],[-96.205859454999938,30.574705718000075],[-96.205307277999964,30.574432064000064],[-96.205149692999953,30.574273521000066],[-96.204926572999966,30.574227240000027],[-96.204666005999968,30.57417328400004],[-96.204609079999955,30.574343085000066],[-96.204585000999941,30.574414912000066],[-96.204214687999979,30.574439669000071],[-96.203852930999972,30.574463852000065],[-96.203507467999941,30.574302728000077],[-96.203299762999961,30.574433747000057],[-96.202980906999983,30.574634877000051],[-96.202993662999972,30.574760793000053],[-96.202671668999983,30.574687219000054],[-96.202086429999952,30.574376678000078],[-96.201597786999969,30.574197840000068],[-96.201249363999978,30.574212110000076],[-96.201058506999971,30.573844506000057],[-96.200907884999936,30.573807424000051],[-96.200273164999942,30.574038365000035],[-96.200026477999984,30.574272885000028],[-96.200048634999973,30.574562747000073],[-96.199859142999969,30.574853161000078],[-96.19935210899996,30.574600919000034],[-96.198835543999962,30.574934230000054],[-96.198529315999963,30.574529077000079],[-96.198218523999969,30.574491801000079],[-96.198025675999986,30.57420350600006],[-96.197294863999957,30.574667064000039],[-96.197131743999989,30.574941361000072],[-96.197002269999984,30.574947555000051],[-96.196883778999961,30.574953226000048],[-96.196873910999955,30.575327820000041],[-96.196704919999945,30.575434132000055],[-96.196686668999973,30.575445615000035],[-96.196589489999951,30.575382992000073],[-96.19660674499994,30.575245420000044],[-96.196778690999963,30.573905573000047],[-96.197424057999967,30.570367738000073],[-96.197588031999942,30.569791104000046],[-96.199609835999979,30.569333119000078],[-96.201167783999949,30.569088325000052],[-96.202635208999936,30.568793841000058],[-96.203620494999939,30.568598068000028],[-96.204117433999954,30.568488795000064],[-96.204176903999951,30.56847472000004],[-96.204674883999985,30.568356851000033],[-96.20548032399995,30.568191265000053],[-96.206187705,30.568059606000077],[-96.206332458999952,30.568059231000063],[-96.206325887999981,30.567900451000071],[-96.206323758999986,30.567849028000069],[-96.206297142999972,30.567205791000049],[-96.206292111999971,30.566933425000059],[-96.206291047999969,30.566875733000074],[-96.206284042999982,30.566496294000046],[-96.206281948999958,30.565157275000047],[-96.206270618999952,30.557911671000056],[-96.206268026999965,30.556253685000058],[-96.206120817999988,30.547745581000072],[-96.204688033999957,30.547757468000043],[-96.204683376,30.544841145000078],[-96.204685852999944,30.539845605000039],[-96.210989582999957,30.539763879000077],[-96.21349801599996,30.538600108000026],[-96.213815151999938,30.53839332900003],[-96.214002095999945,30.538271611000027],[-96.220151529999953,30.545337341000049],[-96.220339016999958,30.545552741000051],[-96.220429949999982,30.545657191000032],[-96.22085788399994,30.545359957000073],[-96.226299648999941,30.54157764100006],[-96.234913227999982,30.536848299000042],[-96.234952658999987,30.536826649000034],[-96.234982918999947,30.53680987100006],[-96.234874931999968,30.536716296000066],[-96.23483506599996,30.53668078000004],[-96.234404068999936,30.53631348600004],[-96.235102961999985,30.535631714000033],[-96.236850071999982,30.535049644000026],[-96.237627329999953,30.535883217000048],[-96.238157543999989,30.536451843000066],[-96.238297199999977,30.536601616000041],[-96.238394340999946,30.536706676000051],[-96.23858708299997,30.536913092000077],[-96.238676934999944,30.537009324000053],[-96.238766789999943,30.537105556000029],[-96.238856644999942,30.537201783000057],[-96.238944870999944,30.537296269000024],[-96.238996865999979,30.537351956000066],[-96.239036323999983,30.537394267000025],[-96.239126103999979,30.53749054900004],[-96.239179340999954,30.537547644000028],[-96.239215884999965,30.537586831000056],[-96.23930566599995,30.537683113000071],[-96.239395448999971,30.53777939500003],[-96.239485228999968,30.537875676000056],[-96.239575010999943,30.537971961000039],[-96.239664792999974,30.53806823900004],[-96.239689758999987,30.538095016000057],[-96.239754710999989,30.538164426000037],[-96.239844679999976,30.538260578000063],[-96.239934646999984,30.538356729000043],[-96.24002461799995,30.538452881000069],[-96.240114587999983,30.53854903000007],[-96.240148101999978,30.538584848000028],[-96.240204484999936,30.538645232000079],[-96.240256088999956,30.538701805000073],[-96.240449896999962,30.538707525000063],[-96.240813171999946,30.538718807000066],[-96.240835906999962,30.538719515000025],[-96.241033741999956,30.538725749000037],[-96.241091263999976,30.538727445000063],[-96.241721334999966,30.538747011000055],[-96.241994553999973,30.538755494000043],[-96.242407241999956,30.53876830400003],[-96.242813241999954,30.53878119500007],[-96.243031245999987,30.538837880000074],[-96.24337901399997,30.538909248000039],[-96.243626568999957,30.538960049000025],[-96.243645587999936,30.538968774000068],[-96.243708688999959,30.538997712000025],[-96.243750072999944,30.539017152000042],[-96.243875635999984,30.539076128000033],[-96.243926748999968,30.539100134000023],[-96.24398752999997,30.539128685000037],[-96.244048311999961,30.539157233000026],[-96.244346379999968,30.53929723300007],[-96.244669556999952,30.539449027000046],[-96.244727152999985,30.539476081000032],[-96.244791536999969,30.539506319000054],[-96.244799679999971,30.539463603000058],[-96.244867759999977,30.539433990000077],[-96.244881563999968,30.539457144000039],[-96.244890633999944,30.539472329000034],[-96.244959205999976,30.539442500000064],[-96.245162300999937,30.539353709000068],[-96.24525588399996,30.539329383000052],[-96.245320795999987,30.539330199000062],[-96.245447920999936,30.539331803000039],[-96.245475712999962,30.539347603000067],[-96.245509759999948,30.539381332000062],[-96.245566174999965,30.539437221000071],[-96.245610746999944,30.53948772900003],[-96.245647256999973,30.539530612000078],[-96.245669316999965,30.539555583000038],[-96.245690920999948,30.539641685000049],[-96.245683866999968,30.539773859000036],[-96.245662977999984,30.539989897000055],[-96.245649979999939,30.540129874000058],[-96.245646961999967,30.540155567000056],[-96.245734564999964,30.54030188400003],[-96.24599058299998,30.540189425000051],[-96.246119758999953,30.540128743000025],[-96.246231843999965,30.540073480000046],[-96.246359524999946,30.540004362000047],[-96.246504803999983,30.539916521000066],[-96.246545716999947,30.539889899000059],[-96.246573579999961,30.539876132000074],[-96.246614613999952,30.539873975000035],[-96.246639080999955,30.539882117000047],[-96.246660128999963,30.539898029000028],[-96.246733848999952,30.539971845000025],[-96.246931773999961,30.540173753000033],[-96.247048384999971,30.540279220000059],[-96.247225543999946,30.540407056000049],[-96.24732596399997,30.540461063000066],[-96.247383357999979,30.540491932000066],[-96.247551949999945,30.540559527000028],[-96.24767656399996,30.540596391000065],[-96.248211303999938,30.540732427000023],[-96.248683443999937,30.540852338000036],[-96.248820853999973,30.540887263000059],[-96.249047037999958,30.54095206900007],[-96.249273679999988,30.54103537900005],[-96.249080292999963,30.541395532000024],[-96.249016983,30.541513377000058],[-96.248616852999987,30.54161459900007],[-96.248159875999988,30.541730200000075],[-96.247674750999977,30.541825609000057],[-96.247304544999963,30.541899489000059],[-96.247291462999954,30.541847580000024],[-96.246749942999941,30.541959864000034],[-96.246472446999974,30.54203401500007],[-96.246189566999988,30.542198058000054],[-96.246176753999976,30.542224574000045],[-96.246166957999947,30.542262717000028],[-96.246160587999952,30.542290974000025],[-96.246153343999936,30.542354579000062],[-96.246147125999983,30.542411817000072],[-96.246135451999976,30.542534373000024],[-96.246051294999972,30.542650895000065],[-96.245938265999939,30.542690306000054],[-96.245932031999985,30.542717702000061],[-96.245795713999939,30.544863767000038],[-96.245530344999963,30.545030065000049],[-96.245476560999975,30.54515851900004],[-96.244952779999949,30.545233969000037],[-96.245107595999968,30.545405594000044],[-96.244488098999966,30.545716115000062],[-96.246149792999972,30.547596423000073],[-96.246709375999956,30.548235369000054],[-96.247133707999978,30.548536434000027],[-96.24736977699996,30.548799981000059],[-96.247364454999968,30.548873374000038],[-96.247855305999963,30.549445180000077],[-96.24806837899996,30.549693395000077],[-96.248166671999968,30.549807892000047],[-96.248482176999971,30.550158545000045],[-96.249114950999967,30.550857396000026],[-96.249750949999964,30.551559798000028],[-96.249797700999977,30.551599347000035],[-96.250060422999979,30.551499628000045],[-96.250386196999955,30.551397186000031],[-96.250451710999982,30.551376584000025],[-96.251021505999972,30.551269379000075],[-96.251398076999976,30.551198527000054],[-96.25165689499994,30.55126888500007],[-96.25229243299998,30.55144165400003],[-96.252928002999965,30.551614426000071],[-96.253563575999976,30.551787198000056],[-96.253779625999982,30.551845928000034],[-96.254198792999944,30.551571157000069],[-96.254833804999976,30.551154891000067],[-96.255499053999984,30.551803878000044],[-96.255644483999959,30.551948844000037],[-96.256081116999951,30.552385598000058],[-96.256628850999959,30.55299363000006],[-96.258711438999967,30.552979657000037],[-96.258863729999973,30.552977234000025],[-96.258859820999987,30.55267223900006],[-96.258809704999976,30.548668958000064],[-96.258798468999942,30.547779972000058],[-96.258751870999959,30.547741767000048],[-96.258728305999966,30.547130043000038],[-96.25870376499995,30.545773526000062],[-96.258683770999937,30.544547507000061],[-96.258680025,30.544317717000069],[-96.258671341999957,30.543928957000048],[-96.25866212699998,30.543516109000052],[-96.258689220999941,30.540202972000031],[-96.25869438899997,30.539571064000029],[-96.258577297999977,30.530732043000057],[-96.258567851999942,30.53001894700003],[-96.258559190999961,30.529365015000053],[-96.258503365999957,30.528162046000034],[-96.258525723,30.526838208000072],[-96.260076346999938,30.525378538000041],[-96.26236217099995,30.523485779000055],[-96.263625544999968,30.524479075000045],[-96.270632538999962,30.53011844100007],[-96.270840401999976,30.53019458700004],[-96.270953348999967,30.530098331000033],[-96.27184207,30.530845353000075],[-96.280983805999938,30.538528524000071],[-96.281191247999971,30.538702830000034],[-96.282676857999945,30.537390105000043],[-96.283154718,30.536969545000034],[-96.283863331999953,30.536345891000053],[-96.284256122999977,30.536015530000043],[-96.284379963999982,30.535904771000048],[-96.284508058999961,30.535790205000069],[-96.284711336999976,30.535608395000054],[-96.285054157,30.535301778000076],[-96.285451800999965,30.534946127000069],[-96.285849438999946,30.534590471000058],[-96.285874633,30.534567938000066],[-96.285976159999962,30.534477129000038],[-96.286100412999986,30.53436599500003],[-96.286188702999937,30.534286868000038],[-96.286137635999978,30.534245593000037],[-96.286164038999971,30.534220295000068],[-96.286246426,30.534141742000031],[-96.287390570999946,30.533143842000072],[-96.288481741999988,30.532191914000066],[-96.288250119999987,30.532003934000045],[-96.287470361999965,30.531365205000043],[-96.286522246999937,30.530586444000051],[-96.285516064999968,30.529776644000037],[-96.284242580999944,30.52874240500006],[-96.282798053999954,30.527562955000064],[-96.28243374699997,30.527258088000053],[-96.28595543299997,30.524151950000032],[-96.286270422999962,30.523874133000049],[-96.288157973999944,30.522209278000048],[-96.288182408999944,30.522187724000048],[-96.288314205999939,30.522073251000052],[-96.293898903999946,30.517252840000026],[-96.294512729999951,30.51777794700007],[-96.294612927999935,30.517859190000024],[-96.296017284999948,30.516592906000028],[-96.296722682999984,30.516497945000026],[-96.296821092999949,30.517051691000063],[-96.299126623999939,30.516740602000027],[-96.299186616999975,30.517067970000028],[-96.299838593999937,30.520701986000063],[-96.300090654999963,30.522106859000075],[-96.300644318999957,30.525192588000039],[-96.301362311,30.529193859000031],[-96.301710392999951,30.531133563000026],[-96.302037666,30.531041879000043],[-96.302928774999941,30.530229893000069],[-96.302907799999957,30.530208884000047],[-96.303583634999939,30.529603326000029],[-96.304415975999973,30.528858759000059],[-96.304605386,30.529422818000057],[-96.304747945999964,30.529791857000077],[-96.304919859999984,30.530164667000065],[-96.30504300399997,30.530399333000048],[-96.30322821599998,30.53206586500005],[-96.304195774999982,30.532858464000071],[-96.305746899999974,30.534122160000038],[-96.305926585999941,30.533486390000064],[-96.307710949999944,30.533558105000054],[-96.308280928999977,30.534088461000067],[-96.310092646999976,30.535774184000047],[-96.310915041999976,30.536613957000043],[-96.312070457999937,30.538050382000051],[-96.312085232999948,30.538208411000028],[-96.312092461999953,30.538285699000028],[-96.312133643159058,30.538364989655179],[-96.312173835690487,30.538444785998308],[-96.312213033383145,30.538525075704452],[-96.312251230185197,30.538605846370043],[-96.312288420188565,30.538687085517722],[-96.312324597658034,30.538768780601799],[-96.312359756999967,30.538850919000026],[-96.312721448,30.539711071000056],[-96.313157102,30.540745890000039],[-96.313479419999965,30.541512571000055],[-96.314878464999936,30.544836565000026],[-96.315900810999949,30.547256054000059],[-96.315900033999981,30.547281755000029],[-96.315890015999969,30.547302781000042],[-96.315872438999975,30.547319686000037],[-96.315852091999943,30.547330099000078],[-96.314512303999948,30.547646714000052],[-96.313134576999971,30.547971655000026],[-96.306096896999975,30.549631240000053],[-96.305611071999977,30.549745790000031],[-96.305440400999942,30.549786032000043],[-96.305424474904783,30.549789832296668],[-96.30540856985688,30.549793719741047],[-96.305392686335821,30.549797694216064],[-96.305376824813706,30.549801755602854],[-96.305360985763471,30.549805903778633],[-96.305345169669806,30.549810138619435],[-96.305329376999964,30.54981446000005],[-96.305313649848401,30.549818857221684],[-96.305297947193495,30.549823341124917],[-96.305282269506264,30.549827911574535],[-96.305266617266156,30.549832568429334],[-96.305250990953382,30.549837311548341],[-96.305235391038011,30.549842140787181],[-96.305219817999955,30.549847056000033],[-96.30520432147668,30.549852041177999],[-96.305188852907477,30.549857112420337],[-96.305173412762073,30.549862269568617],[-96.305158001527147,30.549867512464512],[-96.305142619668359,30.549872840944314],[-96.305127267670372,30.549878254845297],[-96.305111945999954,30.549883754000064],[-96.305096731651247,30.549889310202953],[-96.305081548626973,30.549894951446273],[-96.305066397402683,30.54990067755443],[-96.305051278457526,30.549906488347002],[-96.3050361922608,30.549912383642091],[-96.305021139282871,30.549918363255411],[-96.305006119999973,30.549924427000064],[-96.303082930999949,30.550707293000073],[-96.30306414861785,30.550714864429111],[-96.303045316203338,30.550722310541914],[-96.303026434597982,30.550729631009741],[-96.303007504629917,30.550736825505734],[-96.302988527143157,30.55074389371066],[-96.302969502990308,30.550750835312002],[-96.302950432999978,30.550757650000037],[-96.302931227468051,30.550764369995253],[-96.302911978051796,30.550770963222476],[-96.302892685584069,30.550777429395563],[-96.302873350905415,30.550783768232574],[-96.302853974848929,30.550789979457932],[-96.302834558265729,30.550796062801513],[-96.302815101999954,30.55080201800007],[-96.302793400743454,30.55080849469439],[-96.302771653140141,30.550814814029309],[-96.302749860340541,30.550820975673556],[-96.302728023478252,30.550826979303562],[-96.302706143695602,30.550832824603731],[-96.302684222158192,30.550838511269173],[-96.302662259999977,30.550844039000026],[-96.302604405208541,30.550857790706551],[-96.302546303683769,30.550870459527232],[-96.302487975692188,30.550882041045949],[-96.302429441580884,30.550892531219684],[-96.302370721758919,30.550901926391361],[-96.302311836722794,30.550910223282564],[-96.302252806999945,30.550917419000029],[-96.30221172286339,30.550921778316166],[-96.302170586281363,30.55092561133506],[-96.302129404008141,30.550928917427878],[-96.302088182783322,30.550931696053336],[-96.302046929362632,30.550933946754867],[-96.302005650517927,30.550935669164261],[-96.30196435299996,30.550936863000061],[-96.301943681753855,30.550937263068541],[-96.30192300836643,30.550937530980718],[-96.301902333696475,30.550937666725073],[-96.301881658579063,30.550937670297568],[-96.301860983858205,30.550937541695475],[-96.301840310383213,30.550937280926469],[-96.301819638999973,30.550936888000024],[-96.301128157999983,30.550921778000031],[-96.301122107999959,30.551158068000063],[-96.301120441999956,30.551216872000055],[-96.301118794999979,30.551274818000024],[-96.301111845999969,30.551519939000059],[-96.301102924999952,30.551834532000044],[-96.301085824999973,30.552437471000076],[-96.301076049999949,30.552782168000078],[-96.30103466199995,30.554241498000067],[-96.301031270999943,30.55436105800004],[-96.301024567999946,30.55459740200007],[-96.301016186999959,30.554892949000077],[-96.301008553999964,30.555162069000062],[-96.301001249999956,30.555419606000044],[-96.300994622999951,30.555653222000046],[-96.30099394399997,30.55567714600005],[-96.300955293999948,30.556107199000053],[-96.300954841999953,30.556123256000035],[-96.30098127499997,30.556123933000038],[-96.301610340999957,30.556137685000067],[-96.30163129999994,30.55611968900007],[-96.303043558999946,30.554906981000045],[-96.308220942999981,30.559132584000054],[-96.308955131999937,30.559731758000055],[-96.30828626999994,30.560351369000045],[-96.310057092999955,30.561802686000078],[-96.310082754999939,30.561823752000066],[-96.312978419,30.564291936000075],[-96.313062238999976,30.564362476000042],[-96.313090612999986,30.564386331000037],[-96.31501875899994,30.562715680000053],[-96.316458289999957,30.563933664000047],[-96.317697868999971,30.564982257000054],[-96.31771663316303,30.564964081324586],[-96.317735479736641,30.564945991113287],[-96.317754408322784,30.564927986736617],[-96.317773418537385,30.564910068567766],[-96.317792509983903,30.564892236976899],[-96.317811682267887,30.564874492332063],[-96.317830934999961,30.564856835000057],[-96.317869994747042,30.564821542284367],[-96.317909408366688,30.564786645200453],[-96.317949171847417,30.564752147296527],[-96.317989281145842,30.564718052078202],[-96.318029732183788,30.564684363012471],[-96.318070520848295,30.564651083524982],[-96.318111642999952,30.564618217000032],[-96.318261248999988,30.564745455000036],[-96.318341316999977,30.564813576000063],[-96.318835499999977,30.565230735000057],[-96.321933745999956,30.567851853000036],[-96.323720016999971,30.56622086200008],[-96.323788078999939,30.566158684000072],[-96.32381761399995,30.566131700000028],[-96.323858402999974,30.56609443900004],[-96.32330564199998,30.564786311000034],[-96.322632627999951,30.563193558000023],[-96.322493261999966,30.562941872000067],[-96.320850492999966,30.559014641000033],[-96.321068207999986,30.558823233000055],[-96.321316010999965,30.558605600000078],[-96.321567525999967,30.558384764000039],[-96.32172894699994,30.558243127000026],[-96.322097615999951,30.557919351000066],[-96.324167433999946,30.556101341000044],[-96.326282844,30.554243342000063],[-96.32671473399995,30.553877020000073],[-96.328409274999956,30.552375556000072],[-96.328723737999951,30.552099332000068],[-96.330552608999938,30.550492818000066],[-96.331709592999971,30.551497568000059],[-96.332651561999967,30.552276425000059],[-96.33302443499997,30.552603273000045],[-96.331863715999987,30.553619904000072],[-96.329900254999984,30.555331229000046],[-96.330526868999982,30.556104697000023],[-96.333289794999985,30.559515138000052],[-96.333475372999942,30.559744235000039],[-96.333745291999946,30.560077206000074],[-96.334020209999949,30.560416338000039],[-96.334344641999962,30.56081654500008],[-96.334519449999959,30.561032149000027],[-96.338646815999937,30.55737709400006],[-96.341118245999951,30.559480764000057],[-96.342697796999971,30.560774053000046],[-96.343180967999956,30.561130444000071],[-96.344372513999986,30.562090557000033],[-96.340336528999956,30.565834149000068],[-96.341781210999955,30.567017821000036],[-96.341613398999982,30.567187852000075],[-96.339767781999967,30.568849518000036],[-96.339383018999968,30.569197339000027],[-96.338997730999949,30.569544302000054],[-96.338612440999952,30.569891264000034],[-96.338226888999941,30.570238013000051],[-96.333935249999968,30.574102298000071],[-96.334134057999961,30.57429337800005],[-96.332460677999961,30.575627614000041],[-96.331537204999961,30.576363744000048],[-96.331042636999939,30.576048813000057],[-96.329723187999946,30.577172903000076],[-96.329075674999956,30.577725432000079],[-96.331042281999942,30.582363862000079],[-96.33163716699994,30.582154076000052],[-96.331852675999983,30.582060439000031],[-96.332245942999975,30.581889715000045],[-96.333159796999951,30.583032178000053],[-96.333269966999978,30.583169871000052],[-96.333295272999976,30.583157462000031],[-96.333847271999957,30.582664246000036],[-96.335534519999953,30.581185872000049],[-96.337110152999969,30.579805453000063],[-96.337352117999956,30.579707541000062],[-96.339469883999982,30.57884326900006],[-96.340575349999938,30.579759363000051],[-96.342324204999954,30.581208573000026],[-96.350624505999974,30.573756259000049],[-96.352177966999989,30.575014710000062],[-96.356190911999988,30.571584968000025],[-96.356979405999937,30.570911022000075],[-96.358643109999946,30.569467687000042],[-96.365746497999965,30.563304778000031],[-96.365833849999945,30.563392787000055],[-96.366089110999951,30.563728463000075],[-96.36650777899996,30.563627752000059],[-96.367336696999985,30.563287307000053],[-96.368118188999972,30.562919885000042],[-96.368593008999937,30.562682585000061],[-96.369526884999971,30.562205490000053],[-96.369783135999967,30.562076783000066],[-96.370360379999966,30.561786844000039],[-96.370599400999936,30.561667940000063],[-96.371554814999968,30.561192658000039],[-96.371728237999946,30.561106387000052],[-96.372293930999945,30.560824938000053],[-96.372509412999989,30.560715994000077],[-96.373282061999987,30.560325342000056],[-96.373461123999959,30.560234809000065],[-96.374326146999977,30.559823453000035],[-96.374343432999979,30.559814868000046],[-96.374730596999939,30.559622520000062],[-96.375842731999967,30.559069989000079],[-96.376862175999975,30.558563651000043],[-96.376910977999955,30.558695546000024],[-96.377085438999984,30.558851406000031],[-96.37727592899995,30.558862092000027],[-96.377378998999973,30.558825644000024],[-96.377648245999978,30.558743893000042],[-96.377695962999951,30.558732140000075],[-96.377832664999971,30.558698471000071],[-96.377992011999936,30.558689068000035],[-96.378118296999958,30.558786190000035],[-96.378164732999949,30.558864197000048],[-96.378203632999941,30.558905880000054],[-96.378340609999952,30.559023287000059],[-96.378391034999936,30.559123879000026],[-96.378457608999952,30.559316274000025],[-96.378491378999968,30.559498449000046],[-96.378489732999981,30.559729269000059],[-96.378619316999959,30.560569959000077],[-96.378604041999949,30.56088416800003],[-96.37858109299998,30.56106483700006],[-96.378518390999943,30.561262298000031],[-96.378467778999948,30.561336916000073],[-96.378417429999956,30.561411148000047],[-96.378285479999988,30.56145000600003],[-96.378161133999981,30.561535873000025],[-96.378036689999988,30.561624213000073],[-96.377897893999943,30.56188508200006],[-96.377843237999969,30.56204802700006],[-96.377942970999982,30.562173748000077],[-96.378234288999977,30.562307992000058],[-96.378526944999976,30.562817991000031],[-96.378537457999983,30.56291802800007],[-96.378583507999963,30.563021130000038],[-96.378591380999978,30.563182035000068],[-96.378582606999942,30.563380703000064],[-96.378581312999984,30.563409939000053],[-96.378486709999947,30.563545695000073],[-96.378341817999967,30.563589935000039],[-96.37826191,30.563589880000052],[-96.377962024999988,30.563549549000072],[-96.377949392999938,30.563478142000065],[-96.377929910999967,30.563368005000029],[-96.377792259999978,30.563244652000037],[-96.377637170999947,30.563174526000068],[-96.377569487999949,30.563174571000047],[-96.377318234999962,30.563198822000061],[-96.377199634999954,30.563307144000078],[-96.377117940999938,30.563479341000061],[-96.377104986999939,30.563949700000023],[-96.37710408199996,30.564120659000025],[-96.377102950999983,30.564334360000032],[-96.377157592999936,30.564526077000039],[-96.377227295999944,30.564764011000079],[-96.37722811499998,30.564828979000026],[-96.377228933999959,30.564893946000041],[-96.37720931399997,30.565088144000072],[-96.377183188999936,30.565153976000033],[-96.377157065999938,30.565219811000077],[-96.377110554999945,30.565266189000056],[-96.37702343899997,30.565353593000054],[-96.376950596999961,30.565507561000061],[-96.376904088999936,30.565585998000074],[-96.376857580999967,30.565664436000077],[-96.376705894999986,30.565719193000064],[-96.376477240999975,30.565850186000034],[-96.37626570599997,30.566063043000042],[-96.376015068999948,30.566127134000055],[-96.375699812999983,30.566162858000041],[-96.375628271999972,30.566177674000073],[-96.375525922999941,30.566115094000054],[-96.375379555999984,30.566117733000056],[-96.375175791999936,30.566201705000026],[-96.374925053999959,30.566345580000075],[-96.374800135999976,30.566445188000046],[-96.374734739999951,30.566570434000027],[-96.374820084999953,30.566651725000042],[-96.374728024999968,30.566806966000058],[-96.374570329999983,30.566930323000065],[-96.374437805999946,30.566982917000075],[-96.374216254999965,30.56701091900004],[-96.37407269299996,30.567151961000036],[-96.374036093999962,30.567294657000048],[-96.373824992999971,30.567415246000053],[-96.373788475999959,30.567436104000024],[-96.373725613999966,30.567543280000052],[-96.373658201999945,30.567625315000043],[-96.373608394999962,30.567671631000053],[-96.373573883999939,30.567703728000026],[-96.373537438999961,30.567754539000077],[-96.373458273999972,30.567808844000069],[-96.373329036999962,30.567858786000045],[-96.373195043999942,30.567869789000042],[-96.372921577999989,30.567793128000062],[-96.372720499999957,30.567861443000027],[-96.372605171999965,30.567953392000049],[-96.372499857999969,30.567996661000052],[-96.372320612999943,30.567983537000032],[-96.372189588999959,30.567936343000042],[-96.372157608999942,30.567899056000044],[-96.372131981999985,30.567869180000059],[-96.372098151999978,30.567844911000066],[-96.372055855999974,30.567814593000037],[-96.371932056999981,30.567809675000035],[-96.37181529999998,30.567745022000054],[-96.371783285999982,30.567662029000076],[-96.371781689999978,30.56757361800004],[-96.371862135999947,30.567473201000041],[-96.371902707999936,30.56733661100003],[-96.371872382999982,30.567234038000038],[-96.37185526199994,30.567176115000052],[-96.371790243999953,30.56705635700007],[-96.371696336999946,30.566944597000031],[-96.37147546999995,30.566901930000029],[-96.371176852999952,30.567050093000034],[-96.370900731999939,30.56721990300008],[-96.37076979699998,30.567361376000065],[-96.370708273999981,30.567394842000056],[-96.370621741999969,30.567431955000075],[-96.370360456999947,30.567484037000042],[-96.370096858999943,30.567515362000051],[-96.36973265599994,30.567711862000067],[-96.369553735999943,30.567659680000077],[-96.376917274999983,30.573719254000025],[-96.381788790999963,30.577885386000048],[-96.378647980999972,30.580651627000066],[-96.375541821999946,30.583404158000064],[-96.375576826999975,30.583437014000026],[-96.375589717999958,30.583477659000039],[-96.375592357999949,30.58352517700007],[-96.375626753999939,30.583582254000078],[-96.375653744999966,30.583621875000063],[-96.375652162999984,30.583660348000024],[-96.375663588999942,30.583709272000078],[-96.375676495999983,30.58376454900008],[-96.375674913999944,30.583803020000062],[-96.37568947799997,30.58382281300004],[-96.375714020999965,30.583856117000039],[-96.375819824999951,30.583848644000057],[-96.375901484999986,30.583821841000031],[-96.375971097,30.583807165000053],[-96.376060548999988,30.583782427000074],[-96.376111332999983,30.583707504000074],[-96.376219743999968,30.583622526000056],[-96.376313895999942,30.583575627000073],[-96.376451956999972,30.583466244000078],[-96.37670798399995,30.583426805000045],[-96.376795216999938,30.58346969300004],[-96.376821722999978,30.58352220300003],[-96.376829136999959,30.583651196000062],[-96.376843300999951,30.583778635000044],[-96.376852631999952,30.583818458000053],[-96.376861960999975,30.583858285000076],[-96.376930737999942,30.58396440000007],[-96.376959768999939,30.584047248000047],[-96.376977334999935,30.584146600000054],[-96.377003782999964,30.584199412000032],[-96.377000578999969,30.584246047000079],[-96.376997375999963,30.584292681000079],[-96.376989477999985,30.584322603000032],[-96.376981584999953,30.584352527000078],[-96.376943442999959,30.584382122000079],[-96.376871032999986,30.584411580000051],[-96.376758309999957,30.584418627000048],[-96.376612781999938,30.584431265000035],[-96.376432349999959,30.584432368000023],[-96.376209107999955,30.584447780000062],[-96.376012329,30.584515733000046],[-96.375910379999937,30.584572667000032],[-96.375872306999952,30.584725017000039],[-96.37588350599998,30.584764174000043],[-96.375962192999964,30.584812801000055],[-96.37610628799996,30.584774587000027],[-96.376204617999974,30.584779304000051],[-96.37622523999994,30.58481140400005],[-96.376529710999989,30.584971230000065],[-96.376150683,30.585495757000047],[-96.37638026999997,30.585625077000032],[-96.376762175999943,30.585840164000047],[-96.376551585999948,30.586131565000073],[-96.376026238999941,30.585847133000073],[-96.375656893999974,30.585888311000076],[-96.376444576999972,30.586552299000061],[-96.377739737999946,30.585488496000039],[-96.378627243999972,30.586322738000035],[-96.379823134,30.58527328200006],[-96.379994713999963,30.585122693000073],[-96.380623138999965,30.584577219000039],[-96.382351010999969,30.58603643400005],[-96.38285054399995,30.586458286000038],[-96.383706831999973,30.587181402000056],[-96.384073567999963,30.587496129000044],[-96.384143085999938,30.587435868000057],[-96.387486681999974,30.590270573000055],[-96.385877568999945,30.591685860000041],[-96.385524975999942,30.591962010000032],[-96.38703215299995,30.593273005000071],[-96.387079228999937,30.593313991000059],[-96.387412922999943,30.593604525000046],[-96.387698486999966,30.593853151000076],[-96.385644979999938,30.595697724000047],[-96.385619590999966,30.59572053100004],[-96.385160304999943,30.596133072000043],[-96.382952686999943,30.598115937000046],[-96.382028754999965,30.598945771000047],[-96.379503690999968,30.601213557000051],[-96.37627639599998,30.604110821000063],[-96.37615922599997,30.604216002000044],[-96.376184586904628,30.604328572521833],[-96.376205384261993,30.604442074802591],[-96.376221584203435,30.604556323916764],[-96.376233160324759,30.604671133722146],[-96.376240093759407,30.604786317162961],[-96.37624237322575,30.604901686578184],[-96.376239995,30.605017054000029],[-96.376238946152768,30.605040246350544],[-96.376237708383982,30.605063429385606],[-96.376236281772421,30.60508660156756],[-96.376234666415243,30.605109761356285],[-96.37623286241795,30.605132907215644],[-96.376230869901661,30.605156037608939],[-96.376228688999959,30.605179151000073],[-96.375857167999982,30.608952330000079],[-96.375836183999979,30.609157332000052],[-96.378731584999969,30.611612010000044],[-96.381960056999958,30.614148714000066],[-96.37655480899997,30.618912421000061],[-96.375760680999974,30.619619072000035],[-96.375916368,30.620001198000068],[-96.376130032,30.620567896000068],[-96.37634584999995,30.621249437000074],[-96.376391301999945,30.62198741900005],[-96.376457128999959,30.623056167000072],[-96.376490779999983,30.623757902000079],[-96.376432964999935,30.624111707000054],[-96.376305631999969,30.624890919000052],[-96.376159109999946,30.625787546000026],[-96.375890322999965,30.62659807600005],[-96.375750427999947,30.627262840000071],[-96.375727053999981,30.628014123000071],[-96.375769466999941,30.628509716000053],[-96.371392079999964,30.632306980000067],[-96.371229336999988,30.632448145000069],[-96.366346953999937,30.628296181000053],[-96.363409728999954,30.630983617000027],[-96.363252536999937,30.631127436000043],[-96.360754774999975,30.628364884000064],[-96.359299926999938,30.626755444000025],[-96.356957296999951,30.624164165000025],[-96.356225406999954,30.623354554000059],[-96.355416390999949,30.622459606000064],[-96.352836814999989,30.619598977000066],[-96.352759513999956,30.619664989000057],[-96.352212618999943,30.620136954000031],[-96.35199886099997,30.620318061000035],[-96.351741901999958,30.620538476000036],[-96.351656614999968,30.620611343000064],[-96.351615004999985,30.620647487000042],[-96.351548039999955,30.620705658000077],[-96.351443557999971,30.620796651000035],[-96.351383616999954,30.620848855000077],[-96.351333919999945,30.620892136000066],[-96.351220998999963,30.620991078000031],[-96.351077615999941,30.621115948000067],[-96.350977626999963,30.621201922000068],[-96.350798882999982,30.621356948000027],[-96.350697862999937,30.621444565000047],[-96.350596853999946,30.621532171000069],[-96.350495835999936,30.621619772000031],[-96.350417263999987,30.621687918000077],[-96.350338689999944,30.621756065000056],[-96.350260117999937,30.621824212000035],[-96.350181546999977,30.621892355000057],[-96.349747308999952,30.622268969000061],[-96.349649114999977,30.622356165000042],[-96.349145651999947,30.622803235000049],[-96.348857915999986,30.623058739000044],[-96.348557338999967,30.623325643000044],[-96.348256760999959,30.623592545000065],[-96.347947221999959,30.623867404000066],[-96.347757556999966,30.623700720000045],[-96.347399572999961,30.624077342000078],[-96.347377728999959,30.624102586000049],[-96.347359362999953,30.624127989000044],[-96.346933509999985,30.624762772000054],[-96.346544748999975,30.625361283000075],[-96.346315259999983,30.625690066000061],[-96.345995096999957,30.626343531000032],[-96.345924962999959,30.626486673000045],[-96.345843980999973,30.626672279000047],[-96.345656821999967,30.627101228000072],[-96.349626925999985,30.63043467600005],[-96.349639298999989,30.63044506600005],[-96.350238981999951,30.630948569000054],[-96.350224001999948,30.630958073000045],[-96.350215287999958,30.630962590000024],[-96.350205239,30.630960931000061],[-96.350194010999985,30.630956236000031],[-96.350172211999961,30.630946344000051],[-96.350130319999948,30.630916157000058],[-96.350089077999939,30.630883321000056],[-96.350026041999968,30.630839712000068],[-96.349904831999936,30.630811058000063],[-96.34977123699997,30.630813246000059],[-96.349730492999981,30.630815258000041],[-96.349644316999957,30.63080031800007],[-96.34948273599997,30.630764634000059],[-96.349125646999937,30.630688856000063],[-96.348862291999978,30.630610068000067],[-96.348776134,30.630576198000028],[-96.348732879999943,30.630562779000059],[-96.348689620999949,30.630563284000061],[-96.348554158999946,30.63057754600004],[-96.348526178999975,30.630577861000063],[-96.348490812999955,30.630573684000069],[-96.348354190999942,30.630550714000037],[-96.348218215999964,30.630508310000039],[-96.348085115999936,30.630424148000031],[-96.348018554999953,30.630391132000057],[-96.347918658999959,30.630376369000032],[-96.347832477999987,30.630397662000064],[-96.34775168799996,30.630436210000028],[-96.34769519699995,30.630485002000057],[-96.347578178,30.630507980000061],[-96.34745529099996,30.630500593000079],[-96.347366124999951,30.630488695000054],[-96.347365955999976,30.630488673000059],[-96.347351031999949,30.63048668600004],[-96.347285825999961,30.630450135000046],[-96.347245126999951,30.630391204000034],[-96.347244919,30.630390904000024],[-96.347200494,30.630326594000053],[-96.347121203999961,30.630280636000066],[-96.347038887999986,30.630258522000076],[-96.346941312999945,30.63018627200006],[-96.346896741999956,30.630121719000044],[-96.346836201999963,30.630041757000072],[-96.346694407999962,30.629974713000024],[-96.346560292999982,30.629897424000035],[-96.346436718999939,30.629857521000076],[-96.346281654999984,30.629864241000064],[-96.346214283999984,30.629910659000075],[-96.34606122699995,30.629990956000029],[-96.345924425999954,30.630055170000048],[-96.345867429999942,30.630086199000061],[-96.345741368999938,30.630060195000056],[-96.345439130999978,30.630116525000062],[-96.345273331999977,30.630150398000069],[-96.345088573999988,30.63019950100005],[-96.344784488999949,30.630420799000035],[-96.344753397999966,30.630477444000064],[-96.344692112999951,30.63058909800003],[-96.344666047999965,30.63074965800007],[-96.344637943999942,30.630863211000076],[-96.344617244999938,30.63094288800005],[-96.344575703999965,30.631071548000079],[-96.344549030999985,30.631165857000042],[-96.344508614999938,30.631282251000073],[-96.344499868999947,30.631353901000068],[-96.344514153999967,30.63141608400008],[-96.344474514999945,30.631552511000052],[-96.344389867999951,30.63175687100005],[-96.344360696999956,30.631868690000033],[-96.344232978999969,30.631973133000031],[-96.344051228999945,30.631920472000047],[-96.343869508999944,30.631969092000077],[-96.343782021999971,30.631973448000053],[-96.343628291999948,30.631940257000053],[-96.343372134999981,30.631973964000053],[-96.343261000999973,30.631978495000055],[-96.342950025999983,30.632094169000027],[-96.342760264,30.63216020200008],[-96.342659838999964,30.632226420000052],[-96.342651930999978,30.632230737000043],[-96.342630552999935,30.632237419000035],[-96.342556826999953,30.632272116000024],[-96.342513728999961,30.632292398000061],[-96.342454409999959,30.632341734000079],[-96.342454296999961,30.632342279000056],[-96.342357943999957,30.632398421000062],[-96.342224161,30.632451910000043],[-96.342151583999964,30.632494147000045],[-96.342147341999976,30.632499134000057],[-96.342147000999944,30.632499535000079],[-96.342105469999979,30.632548789000055],[-96.342079484999942,30.632648216000064],[-96.342074804,30.632783988000028],[-96.342097593999938,30.632878022000057],[-96.342144182999959,30.632967540000038],[-96.342189445999963,30.63304064600004],[-96.342211576999944,30.633127644000069],[-96.342192147,30.63317642800007],[-96.342148894,30.633210468000073],[-96.342062883999972,30.633219849000056],[-96.341921248999938,30.633222524000075],[-96.341749572999959,30.633192350000058],[-96.34168336099998,30.633203088000073],[-96.341663777999941,30.633208835000062],[-96.341662378999956,30.633209246000035],[-96.341632566999976,30.633217992000027],[-96.341549419999978,30.633271815000057],[-96.341544431999978,30.633274319000066],[-96.341356989999952,30.633116775000076],[-96.339242859999956,30.631339818000072],[-96.338407022999945,30.630637270000079],[-96.338349640999979,30.630589023000027],[-96.337066046999951,30.629510422000067],[-96.336927012,30.629638443000033],[-96.336029394999969,30.63043932800008],[-96.335794692999968,30.630642315000046],[-96.335651168999959,30.630770916000074],[-96.33550764599994,30.630899518000035],[-96.335363690999941,30.631027759000062],[-96.335219732999974,30.631155998000054],[-96.335075777999975,30.631284239000024],[-96.334931819999952,30.631412478000072],[-96.334787862999974,30.631540718000053],[-96.334643903999961,30.631668958000034],[-96.334499946999983,30.631797198000072],[-96.334347128,30.631933328000059],[-96.334194309999987,30.632069459000036],[-96.334037060999947,30.632209536000062],[-96.333909711999979,30.632322978000047],[-96.333782362999955,30.632436420000033],[-96.333640909999986,30.63256242600005],[-96.333516588999942,30.632673168000053],[-96.333378162999963,30.632796474000031],[-96.333239738999964,30.632919781000055],[-96.333101314999965,30.633043086000043],[-96.332962889999976,30.633166391000032],[-96.332824463999941,30.633289696000077],[-96.332686037999963,30.633413],[-96.332546212999944,30.633537553000053],[-96.333127833,30.634010323000041],[-96.334145770999953,30.634862499000064],[-96.332954668999946,30.635959931000059],[-96.332595471,30.636290873000064],[-96.332417263999957,30.636455064000074],[-96.33229677199995,30.636566075000076],[-96.332103449999977,30.636744189000069],[-96.331968821999965,30.636868223000079],[-96.331925462999948,30.636908345000052],[-96.331805319999944,30.637017250000042],[-96.331670522999957,30.637139575000049],[-96.331489495999961,30.637303847000055],[-96.331303181999942,30.637472918000071],[-96.331158207999977,30.637604475000046],[-96.331004107999945,30.637744312000052],[-96.330519860999971,30.638183732000073],[-96.33023949699998,30.63843814300003],[-96.329879371999937,30.638764927000068],[-96.329550332999986,30.639063498000041],[-96.329243070999951,30.639369382000041],[-96.328476345999945,30.640067819000024],[-96.328417312999989,30.640121583000052],[-96.32823179199994,30.640267759000039],[-96.327031320999936,30.641322457000058],[-96.327017223999974,30.64133484000007],[-96.324844639,30.643243523000024],[-96.323808336999946,30.642387337000059],[-96.322120995999967,30.640992243000028],[-96.322252185999957,30.640874911000026],[-96.322106065999947,30.640763478000054],[-96.322005084999944,30.640679231000036],[-96.322025161999989,30.640532545000042],[-96.321851876999972,30.640386601000046],[-96.321680133999962,30.640243514000076],[-96.321519841999987,30.640109963000043],[-96.321176359,30.639823785000033],[-96.320832880999944,30.639537606000033],[-96.320792691999941,30.639504124000041],[-96.320586528999968,30.639332351000064],[-96.320361175999949,30.639525116000073],[-96.319031651999978,30.640732567000043],[-96.318805152999971,30.640938265000045],[-96.317060535999985,30.642522617000054],[-96.315877597999986,30.64359285300003],[-96.314578677999975,30.644763484000066],[-96.314538769999956,30.64479956100007],[-96.313511846999972,30.645729837000033],[-96.31306067099996,30.646138511000061],[-96.310664453999948,30.648308911000072],[-96.310307854999962,30.648009832000071],[-96.309862109999983,30.647635981000064],[-96.305419496999946,30.643907958000057],[-96.304732979999983,30.644343417000073],[-96.304106713999943,30.644740652000053],[-96.302545539999983,30.645730864000029],[-96.300676194999937,30.646916487000055],[-96.300362481999969,30.647115456000051],[-96.299892858999954,30.647434759000078],[-96.29987472,30.647446501000047],[-96.299661712999978,30.647577667000064],[-96.298711672999957,30.648232489000065],[-96.298476049999977,30.648379595000051],[-96.298255851999954,30.648522186000037],[-96.298037553999961,30.648668760000078],[-96.297958437999966,30.648723216000064],[-96.29768351499996,30.648919621000061],[-96.297411466999961,30.649120984000035],[-96.297314756,30.649194315000045],[-96.297042082999951,30.649407541000073],[-96.29650918599998,30.649840180000069],[-96.296274942999958,30.65004814100007],[-96.295710516999975,30.65059109200007],[-96.295462191999945,30.650829596000051],[-96.293129498999974,30.652899254000033],[-96.292794429999958,30.653197209000041],[-96.29161507699996,30.654242477000025],[-96.289021136999963,30.656522983000059],[-96.288463212999943,30.657034492000037],[-96.28782083599998,30.657697455000061],[-96.287764329999959,30.657895813000039],[-96.287665450999953,30.658149767000054],[-96.287647032999985,30.658264446000032],[-96.287786532999974,30.658430700000054],[-96.286692873999982,30.658259824000027]],[[-96.304514296999969,30.54655376900007],[-96.304536467999981,30.545779221000032],[-96.301895765999973,30.545721428000036],[-96.301876903999982,30.546367888000077],[-96.301823842999966,30.548186489000045],[-96.301811461999989,30.548614712000074],[-96.304453451999962,30.548668448000058],[-96.304496689999951,30.547165712000037],[-96.304514296999969,30.54655376900007]]]]}}
]
}
