{
"type": "FeatureCollection",
"name": "RELLIS_buildings",
"crs": { "type": "name", "properties": { "name": "urn:ogc:def:crs:OGC:1.3:CRS84" } },
"features": [
{ "type": "Feature", "properties": { "element": "way", "id": 552658795, "addr:city": "Bryan", "addr:housenumber": "1041", "addr:postcode": "77807", "addr:state": "TX", "addr:street": "RELLIS Parkway", "building": "university", "building:levels": "3", "building:use": "education", "name": "Center for Infrastructure Renewal", "short_name": "CIR", "man_made": null, "leisure": null, "operator": null, "ref": null }, "geometry": { "type": "Polygon", "coordinates": [ [ [ -96.4757386, 30.6482579 ], [ -96.4757423, 30.6480399 ], [ -96.4752925, 30.6480397 ], [ -96.4752935, 30.6478407 ], [ -96.4758512, 30.6478424 ], [ -96.4758592, 30.647606 ], [ -96.4748648, 30.6475967 ], [ -96.4748621, 30.6478727 ], [ -96.4744337, 30.6478703 ], [ -96.4744319, 30.6482747 ], [ -96.4749563, 30.6482789 ], [ -96.4749567, 30.6483067 ], [ -96.475486, 30.6483131 ], [ -96.4757386, 30.6482579 ] ] ] } },
{ "type": "Feature", "properties": { "element": "way", "id": 552658799, "addr:city": null, "addr:housenumber": null, "addr:postcode": null, "addr:state": null, "addr:street": null, "building": "university", "building:levels": null, "building:use": null, "name": "Joint Library Facility", "short_name": null, "man_made": null, "leisure": null, "operator": null, "ref": null }, "geometry": { "type": "Polygon", "coordinates": [ [ [ -96.4688614, 30.6473936 ], [ -96.4684634, 30.6469491 ], [ -96.4679877, 30.6472687 ], [ -96.4681288, 30.647443 ], [ -96.4679225, 30.6475793 ], [ -96.4679857, 30.6476493 ], [ -96.4680179, 30.6476223 ], [ -96.4680387, 30.6476393 ], [ -96.4680746, 30.6476371 ], [ -96.4681717, 30.6477442 ], [ -96.4682652, 30.6476803 ], [ -96.4682136, 30.6476255 ], [ -96.468272, 30.6475854 ], [ -96.4683883, 30.6477168 ], [ -96.4688614, 30.6473936 ] ] ] } },
{ "type": "Feature", "properties": { "element": "way", "id": 552658801, "addr:city": null, "addr:housenumber": null, "addr:postcode": null, "addr:state": null, "addr:street": null, "building": "yes", "building:levels": null, "building:use": null, "name": null, "short_name": null, "man_made": "storage_tank", "leisure": null, "operator": null, "ref": null }, "geometry": { "type": "Polygon", "coordinates": [ [ [ -96.4719448, 30.6435061 ], [ -96.4719347, 30.6435348 ], [ -96.4719363, 30.6435646 ], [ -96.4719493, 30.6435924 ], [ -96.4719723, 30.6436148 ], [ -96.4720026, 30.6436295 ], [ -96.4720369, 30.6436346 ], [ -96.4720698, 30.6436301 ], [ -96.4720993, 30.6436168 ], [ -96.4721224, 30.6435961 ], [ -96.4721366, 30.6435702 ], [ -96.4721405, 30.6435417 ], [ -96.4721336, 30.6435136 ], [ -96.4721167, 30.6434889 ], [ -96.4720916, 30.6434701 ], [ -96.4720608, 30.6434592 ], [ -96.4720275, 30.6434572 ], [ -96.4719939, 30.643465 ], [ -96.4719653, 30.643482 ], [ -96.4719448, 30.6435061 ] ] ] } },
{ "type": "Feature", "properties": { "element": "way", "id": 552658802, "addr:city": null, "addr:housenumber": null, "addr:postcode": null, "addr:state": null, "addr:street": null, "building": "university", "building:levels": null, "building:use": null, "name": "TEEX Law Enforcement and Security Training", "short_name": null, "man_made": null, "leisure": null, "operator": null, "ref": null }, "geometry": { "type": "Polygon", "coordinates": [ [ [ -96.4685199, 30.640987 ], [ -96.4685234, 30.6405357 ], [ -96.4690681, 30.6405388 ], [ -96.4690675, 30.6406157 ], [ -96.4692671, 30.6406169 ], [ -96.4692675, 30.6405539 ], [ -96.4695815, 30.6405557 ], [ -96.4695781, 30.6409899 ], [ -96.4692641, 30.6409881 ], [ -96.4692648, 30.6408923 ], [ -96.4690618, 30.6408911 ], [ -96.4690611, 30.6409901 ], [ -96.4685199, 30.640987 ] ] ] } },
{ "type": "Feature", "properties": { "element": "way", "id": 552658807, "addr:city": null, "addr:housenumber": null, "addr:postcode": null, "addr:state": null, "addr:street": null, "building": "university", "building:levels": null, "building:use": null, "name": null, "short_name": null, "man_made": null, "leisure": null, "operator": null, "ref": null }, "geometry": { "type": "Polygon", "coordinates": [ [ [ -96.4698962, 30.641887 ], [ -96.4698953, 30.6417653 ], [ -96.4697919, 30.6417659 ], [ -96.4697913, 30.6416905 ], [ -96.4696824, 30.641691 ], [ -96.4696829, 30.6417659 ], [ -96.4695478, 30.6417666 ], [ -96.4695487, 30.6418889 ], [ -96.4698962, 30.641887 ] ] ] } },
{ "type": "Feature", "properties": { "element": "way", "id": 552658808, "addr:city": null, "addr:housenumber": null, "addr:postcode": null, "addr:state": null, "addr:street": null, "building": "university", "building:levels": null, "building:use": null, "name": "Automated Fabrication and Design Lab", "short_name": null, "man_made": null, "leisure": null, "operator": null, "ref": null }, "geometry": { "type": "Polygon", "coordinates": [ [ [ -96.4708991, 30.6394093 ], [ -96.4708991, 30.6391567 ], [ -96.470478, 30.6391567 ], [ -96.470478, 30.6394093 ], [ -96.4708991, 30.6394093 ] ] ] } },
{ "type": "Feature", "properties": { "element": "way", "id": 552658809, "addr:city": null, "addr:housenumber": null, "addr:postcode": null, "addr:state": null, "addr:street": null, "building": "university", "building:levels": null, "building:use": null, "name": null, "short_name": null, "man_made": null, "leisure": null, "operator": null, "ref": null }, "geometry": { "type": "Polygon", "coordinates": [ [ [ -96.4708419, 30.6397043 ], [ -96.4708394, 30.639543 ], [ -96.4704997, 30.6395469 ], [ -96.4705022, 30.6397082 ], [ -96.4708419, 30.6397043 ] ] ] } },
{ "type": "Feature", "properties": { "element": "way", "id": 552658810, "addr:city": "Bryan", "addr:housenumber": "1555", "addr:postcode": "77807", "addr:state": "TX", "addr:street": "Avenue D", "building": "chapel", "building:levels": "1", "building:use": null, "name": "RELLIS - Chapel & Assembly Hall", "short_name": null, "man_made": null, "leisure": null, "operator": null, "ref": null }, "geometry": { "type": "Polygon", "coordinates": [ [ [ -96.4698254, 30.6385554 ], [ -96.469825, 30.6384459 ], [ -96.4695238, 30.6384468 ], [ -96.4695239, 30.6384731 ], [ -96.4694771, 30.6384733 ], [ -96.4694773, 30.638529 ], [ -96.4695229, 30.6385289 ], [ -96.469523, 30.6385563 ], [ -96.4698254, 30.6385554 ] ] ] } },
{ "type": "Feature", "properties": { "element": "way", "id": 552658811, "addr:city": null, "addr:housenumber": null, "addr:postcode": null, "addr:state": null, "addr:street": null, "building": "yes", "building:levels": null, "building:use": null, "name": "Wyatt Complex", "short_name": null, "man_made": null, "leisure": "fitness_centre", "operator": null, "ref": null }, "geometry": { "type": "Polygon", "coordinates": [ [ [ -96.4695695, 30.6404358 ], [ -96.4695688, 30.6402598 ], [ -96.4693743, 30.6402604 ], [ -96.4693742, 30.6402316 ], [ -96.4690877, 30.6402325 ], [ -96.4690887, 30.6404662 ], [ -96.4693351, 30.6404654 ], [ -96.4693349, 30.6404365 ], [ -96.4695695, 30.6404358 ] ] ] } },
{ "type": "Feature", "properties": { "element": "way", "id": 552658812, "addr:city": "Bryan", "addr:housenumber": "1696", "addr:postcode": "77807", "addr:state": "TX", "addr:street": "Bryan Road", "building": "university", "building:levels": "1.5", "building:use": null, "name": "Center for Advanced Manufaturing", "short_name": null, "man_made": null, "leisure": null, "operator": null, "ref": null }, "geometry": { "type": "Polygon", "coordinates": [ [ [ -96.4685009, 30.6363485 ], [ -96.4685, 30.6359068 ], [ -96.4681995, 30.6359072 ], [ -96.4681997, 30.6360224 ], [ -96.4681417, 30.6360225 ], [ -96.468142, 30.6361861 ], [ -96.4683463, 30.6361858 ], [ -96.4683467, 30.6363487 ], [ -96.4685009, 30.6363485 ] ] ] } },
{ "type": "Feature", "properties": { "element": "way", "id": 552658813, "addr:city": null, "addr:housenumber": null, "addr:postcode": null, "addr:state": null, "addr:street": null, "building": "university", "building:levels": null, "building:use": null, "name": null, "short_name": null, "man_made": null, "leisure": null, "operator": null, "ref": null }, "geometry": { "type": "Polygon", "coordinates": [ [ [ -96.4725436, 30.6360528 ], [ -96.472541, 30.6358523 ], [ -96.4722829, 30.6358548 ], [ -96.4722815, 30.6357514 ], [ -96.4720952, 30.6357532 ], [ -96.4720966, 30.6358563 ], [ -96.4718653, 30.6358586 ], [ -96.4718679, 30.6360549 ], [ -96.4720738, 30.6360529 ], [ -96.4720744, 30.636097 ], [ -96.4723158, 30.6360946 ], [ -96.4723153, 30.636055 ], [ -96.4725436, 30.6360528 ] ] ] } },
{ "type": "Feature", "properties": { "element": "way", "id": 552658814, "addr:city": null, "addr:housenumber": null, "addr:postcode": null, "addr:state": null, "addr:street": null, "building": "university", "building:levels": null, "building:use": null, "name": null, "short_name": null, "man_made": null, "leisure": null, "operator": null, "ref": null }, "geometry": { "type": "Polygon", "coordinates": [ [ [ -96.4734441, 30.6359725 ], [ -96.4734418, 30.6356812 ], [ -96.473337, 30.6356818 ], [ -96.4733393, 30.6359731 ], [ -96.4734441, 30.6359725 ] ] ] } },
{ "type": "Feature", "properties": { "element": "way", "id": 552658815, "addr:city": null, "addr:housenumber": null, "addr:postcode": null, "addr:state": null, "addr:street": null, "building": "university", "building:levels": null, "building:use": null, "name": null, "short_name": null, "man_made": null, "leisure": null, "operator": null, "ref": null }, "geometry": { "type": "Polygon", "coordinates": [ [ [ -96.4712453, 30.6332101 ], [ -96.4712362, 30.6329199 ], [ -96.4706831, 30.6329199 ], [ -96.4706862, 30.6332258 ], [ -96.4712453, 30.6332101 ] ] ] } },
{ "type": "Feature", "properties": { "element": "way", "id": 552658816, "addr:city": null, "addr:housenumber": null, "addr:postcode": null, "addr:state": null, "addr:street": null, "building": "university", "building:levels": null, "building:use": null, "name": null, "short_name": null, "man_made": null, "leisure": null, "operator": null, "ref": null }, "geometry": { "type": "Polygon", "coordinates": [ [ [ -96.4713061, 30.6353227 ], [ -96.4713045, 30.635175 ], [ -96.4708441, 30.6351788 ], [ -96.4708458, 30.6353265 ], [ -96.4713061, 30.6353227 ] ] ] } },
{ "type": "Feature", "properties": { "element": "way", "id": 552658817, "addr:city": null, "addr:housenumber": null, "addr:postcode": null, "addr:state": null, "addr:street": null, "building": "university", "building:levels": null, "building:use": null, "name": null, "short_name": null, "man_made": null, "leisure": null, "operator": null, "ref": null }, "geometry": { "type": "Polygon", "coordinates": [ [ [ -96.4752666, 30.6348924 ], [ -96.4752617, 30.6346864 ], [ -96.4751383, 30.6346886 ], [ -96.4751335, 30.634485 ], [ -96.4747418, 30.6344918 ], [ -96.4747515, 30.6349014 ], [ -96.4752666, 30.6348924 ] ] ] } },
{ "type": "Feature", "properties": { "element": "way", "id": 552658818, "addr:city": null, "addr:housenumber": null, "addr:postcode": null, "addr:state": null, "addr:street": null, "building": "university", "building:levels": null, "building:use": null, "name": null, "short_name": null, "man_made": null, "leisure": null, "operator": null, "ref": null }, "geometry": { "type": "Polygon", "coordinates": [ [ [ -96.475148, 30.6339252 ], [ -96.4751474, 30.6334737 ], [ -96.4747498, 30.633471 ], [ -96.4747457, 30.6339265 ], [ -96.4748446, 30.6339232 ], [ -96.475148, 30.6339252 ] ] ] } },
{ "type": "Feature", "properties": { "element": "way", "id": 552658819, "addr:city": "Bryan", "addr:housenumber": "1734", "addr:postcode": "77807", "addr:state": "TX", "addr:street": "Avenue D", "building": "university", "building:levels": null, "building:use": null, "name": "TEES - Process Engineering Solvent Extraction", "short_name": null, "man_made": null, "leisure": null, "operator": null, "ref": null }, "geometry": { "type": "Polygon", "coordinates": [ [ [ -96.4711631, 30.6348677 ], [ -96.471162, 30.6347299 ], [ -96.4708545, 30.6347329 ], [ -96.4708544, 30.6348687 ], [ -96.4711631, 30.6348677 ] ] ] } },
{ "type": "Feature", "properties": { "element": "way", "id": 552658820, "addr:city": null, "addr:housenumber": null, "addr:postcode": null, "addr:state": null, "addr:street": null, "building": "university", "building:levels": null, "building:use": null, "name": null, "short_name": null, "man_made": null, "leisure": null, "operator": null, "ref": null }, "geometry": { "type": "Polygon", "coordinates": [ [ [ -96.4697591, 30.6350065 ], [ -96.4697574, 30.6347683 ], [ -96.469552, 30.6347694 ], [ -96.4695537, 30.6350076 ], [ -96.4697591, 30.6350065 ] ] ] } },
{ "type": "Feature", "properties": { "element": "way", "id": 552658821, "addr:city": "Bryan", "addr:housenumber": "1759", "addr:postcode": "77807", "addr:state": "TX", "addr:street": "7th Street", "building": "university", "building:levels": null, "building:use": null, "name": "TALR - Honey Bee/Apiary Services Building", "short_name": null, "man_made": null, "leisure": null, "operator": null, "ref": null }, "geometry": { "type": "Polygon", "coordinates": [ [ [ -96.4659198, 30.6345147 ], [ -96.465915, 30.6341872 ], [ -96.4657995, 30.6341885 ], [ -96.4658005, 30.6342533 ], [ -96.4657153, 30.6342543 ], [ -96.4657191, 30.6345168 ], [ -96.4659198, 30.6345147 ] ] ] } },
{ "type": "Feature", "properties": { "element": "way", "id": 552659090, "addr:city": null, "addr:housenumber": null, "addr:postcode": null, "addr:state": null, "addr:street": null, "building": "university", "building:levels": null, "building:use": null, "name": null, "short_name": null, "man_made": null, "leisure": null, "operator": null, "ref": null }, "geometry": { "type": "Polygon", "coordinates": [ [ [ -96.4721055, 30.6378408 ], [ -96.4720971, 30.6374887 ], [ -96.4720044, 30.6374903 ], [ -96.4720025, 30.6374133 ], [ -96.4717547, 30.6374177 ], [ -96.4717634, 30.6377816 ], [ -96.4719509, 30.6377783 ], [ -96.4719525, 30.6378436 ], [ -96.4721055, 30.6378408 ] ] ] } },
{ "type": "Feature", "properties": { "element": "way", "id": 556782260, "addr:city": null, "addr:housenumber": null, "addr:postcode": null, "addr:state": null, "addr:street": null, "building": "university", "building:levels": null, "building:use": null, "name": null, "short_name": null, "man_made": null, "leisure": null, "operator": null, "ref": null }, "geometry": { "type": "Polygon", "coordinates": [ [ [ -96.4741994, 30.6440123 ], [ -96.4741917, 30.6435426 ], [ -96.4746054, 30.6435376 ], [ -96.4746108, 30.6438715 ], [ -96.4746555, 30.643871 ], [ -96.4746577, 30.6440067 ], [ -96.4741994, 30.6440123 ] ] ] } },
{ "type": "Feature", "properties": { "element": "way", "id": 556782261, "addr:city": null, "addr:housenumber": null, "addr:postcode": null, "addr:state": null, "addr:street": null, "building": "university", "building:levels": null, "building:use": null, "name": null, "short_name": null, "man_made": null, "leisure": null, "operator": null, "ref": null }, "geometry": { "type": "Polygon", "coordinates": [ [ [ -96.4747769, 30.6440301 ], [ -96.4747826, 30.6433818 ], [ -96.4752979, 30.6433852 ], [ -96.4752921, 30.6440335 ], [ -96.4747769, 30.6440301 ] ] ] } },
{ "type": "Feature", "properties": { "element": "way", "id": 556782262, "addr:city": null, "addr:housenumber": null, "addr:postcode": null, "addr:state": null, "addr:street": null, "building": "university", "building:levels": null, "building:use": null, "name": null, "short_name": null, "man_made": null, "leisure": null, "operator": null, "ref": null }, "geometry": { "type": "Polygon", "coordinates": [ [ [ -96.474472, 30.6433553 ], [ -96.4744715, 30.6432461 ], [ -96.4746079, 30.6432456 ], [ -96.4746069, 30.6430332 ], [ -96.4744692, 30.6430338 ], [ -96.4744689, 30.6429705 ], [ -96.4742609, 30.6429713 ], [ -96.4742629, 30.6433561 ], [ -96.474472, 30.6433553 ] ] ] } },
{ "type": "Feature", "properties": { "element": "way", "id": 556782263, "addr:city": null, "addr:housenumber": null, "addr:postcode": null, "addr:state": null, "addr:street": null, "building": "university", "building:levels": null, "building:use": null, "name": null, "short_name": null, "man_made": null, "leisure": null, "operator": null, "ref": null }, "geometry": { "type": "Polygon", "coordinates": [ [ [ -96.4748181, 30.644976 ], [ -96.4748157, 30.644469 ], [ -96.4744895, 30.6444702 ], [ -96.474492, 30.6449772 ], [ -96.4748181, 30.644976 ] ] ] } },
{ "type": "Feature", "properties": { "element": "way", "id": 556782264, "addr:city": null, "addr:housenumber": null, "addr:postcode": null, "addr:state": null, "addr:street": null, "building": "university", "building:levels": null, "building:use": null, "name": null, "short_name": null, "man_made": null, "leisure": null, "operator": null, "ref": null }, "geometry": { "type": "Polygon", "coordinates": [ [ [ -96.4754033, 30.6419287 ], [ -96.4754033, 30.6417417 ], [ -96.4750792, 30.6417417 ], [ -96.4750792, 30.6419287 ], [ -96.4754033, 30.6419287 ] ] ] } },
{ "type": "Feature", "properties": { "element": "way", "id": 556782265, "addr:city": null, "addr:housenumber": null, "addr:postcode": null, "addr:state": null, "addr:street": null, "building": "university", "building:levels": null, "building:use": null, "name": "RELLIS Operations Building", "short_name": null, "man_made": null, "leisure": null, "operator": null, "ref": null }, "geometry": { "type": "Polygon", "coordinates": [ [ [ -96.474259, 30.6397072 ], [ -96.4742634, 30.6391232 ], [ -96.474471, 30.6391243 ], [ -96.4744666, 30.6397083 ], [ -96.474259, 30.6397072 ] ] ] } },
{ "type": "Feature", "properties": { "element": "way", "id": 556782266, "addr:city": null, "addr:housenumber": null, "addr:postcode": null, "addr:state": null, "addr:street": null, "building": "university", "building:levels": null, "building:use": null, "name": null, "short_name": null, "man_made": null, "leisure": null, "operator": null, "ref": null }, "geometry": { "type": "Polygon", "coordinates": [ [ [ -96.4753028, 30.6372511 ], [ -96.4752956, 30.6369011 ], [ -96.4749966, 30.6369056 ], [ -96.4750037, 30.6372556 ], [ -96.4753028, 30.6372511 ] ] ] } },
{ "type": "Feature", "properties": { "element": "way", "id": 610315149, "addr:city": "Bryan", "addr:housenumber": "2626", "addr:postcode": null, "addr:state": "TX", "addr:street": "Goodson Bend Road", "building": "detached", "building:levels": null, "building:use": null, "name": null, "short_name": null, "man_made": null, "leisure": null, "operator": null, "ref": null }, "geometry": { "type": "Polygon", "coordinates": [ [ [ -96.4594557, 30.6370415 ], [ -96.4593574, 30.6369517 ], [ -96.459487, 30.6368467 ], [ -96.4595852, 30.6369365 ], [ -96.4594557, 30.6370415 ] ] ] } },
{ "type": "Feature", "properties": { "element": "way", "id": 637923396, "addr:city": "Bryan", "addr:housenumber": "1111", "addr:postcode": "77807", "addr:state": "TX", "addr:street": "RELLIS Parkway", "building": "university", "building:levels": null, "building:use": null, "name": "TTI Headquarters", "short_name": null, "man_made": null, "leisure": null, "operator": null, "ref": null }, "geometry": { "type": "Polygon", "coordinates": [ [ [ -96.4738414, 30.6483347 ], [ -96.4738343, 30.6476055 ], [ -96.4734534, 30.6476082 ], [ -96.4734582, 30.6481047 ], [ -96.4728154, 30.6481093 ], [ -96.4728123, 30.6477924 ], [ -96.4725823, 30.6477941 ], [ -96.4725862, 30.6481952 ], [ -96.4726996, 30.6481944 ], [ -96.4727002, 30.6482584 ], [ -96.4727517, 30.648258 ], [ -96.4727526, 30.6483426 ], [ -96.4738414, 30.6483347 ] ] ] } },
{ "type": "Feature", "properties": { "element": "way", "id": 637923397, "addr:city": null, "addr:housenumber": null, "addr:postcode": null, "addr:state": null, "addr:street": null, "building": "college", "building:levels": "4", "building:use": null, "name": "Walter C. Schwartz Building", "short_name": "SCHW", "man_made": null, "leisure": null, "operator": "Blinn College", "ref": null }, "geometry": { "type": "Polygon", "coordinates": [ [ [ -96.4685542, 30.6423876 ], [ -96.4685517, 30.6420155 ], [ -96.4685041, 30.6420157 ], [ -96.4685038, 30.6419601 ], [ -96.4685203, 30.6419601 ], [ -96.4685201, 30.6419254 ], [ -96.4686104, 30.6419249 ], [ -96.4686095, 30.6417883 ], [ -96.4685194, 30.6417887 ], [ -96.4685192, 30.6417627 ], [ -96.4681982, 30.6417643 ], [ -96.4681998, 30.6420091 ], [ -96.4682024, 30.6423893 ], [ -96.4685542, 30.6423876 ] ] ] } },
{ "type": "Feature", "properties": { "element": "way", "id": 637923398, "addr:city": null, "addr:housenumber": null, "addr:postcode": null, "addr:state": null, "addr:street": null, "building": "university", "building:levels": null, "building:use": null, "name": "Gateway Education Center", "short_name": "TAC1", "man_made": null, "leisure": null, "operator": "Texas A&M University System", "ref": "6000" }, "geometry": { "type": "Polygon", "coordinates": [ [ [ -96.4670683, 30.6413472 ], [ -96.4670686, 30.6411342 ], [ -96.4669599, 30.641134 ], [ -96.4669601, 30.6410578 ], [ -96.4661069, 30.6410567 ], [ -96.4661068, 30.6411477 ], [ -96.4660908, 30.6411476 ], [ -96.4660904, 30.641346 ], [ -96.4662006, 30.6413461 ], [ -96.4670683, 30.6413472 ] ] ] } },
{ "type": "Feature", "properties": { "element": "way", "id": 637923405, "addr:city": null, "addr:housenumber": null, "addr:postcode": null, "addr:state": null, "addr:street": null, "building": "university", "building:levels": null, "building:use": null, "name": null, "short_name": null, "man_made": null, "leisure": null, "operator": null, "ref": null }, "geometry": { "type": "Polygon", "coordinates": [ [ [ -96.4747277, 30.6412568 ], [ -96.4747342, 30.6408351 ], [ -96.4743926, 30.6408312 ], [ -96.4743861, 30.6412529 ], [ -96.4747277, 30.6412568 ] ] ] } },
{ "type": "Feature", "properties": { "element": "way", "id": 637923406, "addr:city": null, "addr:housenumber": null, "addr:postcode": null, "addr:state": null, "addr:street": null, "building": "university", "building:levels": null, "building:use": null, "name": null, "short_name": null, "man_made": null, "leisure": null, "operator": null, "ref": null }, "geometry": { "type": "Polygon", "coordinates": [ [ [ -96.4749674, 30.6411119 ], [ -96.4750091, 30.6411207 ], [ -96.4750448, 30.6411411 ], [ -96.4750705, 30.6411707 ], [ -96.475083, 30.641206 ], [ -96.475081, 30.6412429 ], [ -96.4750646, 30.641277 ], [ -96.4750358, 30.6413044 ], [ -96.475001, 30.6413209 ], [ -96.4749619, 30.6413273 ], [ -96.4749225, 30.6413227 ], [ -96.4748867, 30.6413078 ], [ -96.4748582, 30.6412839 ], [ -96.4748398, 30.6412536 ], [ -96.4748333, 30.6412198 ], [ -96.4748395, 30.641186 ], [ -96.4748577, 30.6411556 ], [ -96.474886, 30.6411316 ], [ -96.4749247, 30.6411157 ], [ -96.4749674, 30.6411119 ] ] ] } },
{ "type": "Feature", "properties": { "element": "way", "id": 637923407, "addr:city": null, "addr:housenumber": null, "addr:postcode": null, "addr:state": null, "addr:street": null, "building": "university", "building:levels": null, "building:use": null, "name": null, "short_name": null, "man_made": null, "leisure": null, "operator": null, "ref": null }, "geometry": { "type": "Polygon", "coordinates": [ [ [ -96.4706065, 30.6368882 ], [ -96.4706065, 30.6366886 ], [ -96.4704519, 30.6366886 ], [ -96.4704519, 30.6368882 ], [ -96.4706065, 30.6368882 ] ] ] } },
{ "type": "Feature", "properties": { "element": "way", "id": 1214015182, "addr:city": null, "addr:housenumber": null, "addr:postcode": null, "addr:state": null, "addr:street": null, "building": "university", "building:levels": null, "building:use": null, "name": "RELLIS Academic Complex Phase 2", "short_name": "TAC2", "man_made": null, "leisure": null, "operator": "Texas A&M University System", "ref": "6001" }, "geometry": { "type": "Polygon", "coordinates": [ [ [ -96.4670873, 30.6406477 ], [ -96.46741, 30.6406469 ], [ -96.4674116, 30.6411413 ], [ -96.4672762, 30.6411416 ], [ -96.4672765, 30.64122 ], [ -96.4670891, 30.6412204 ], [ -96.4670873, 30.6406477 ] ] ] } },
{ "type": "Feature", "properties": { "element": "way", "id": 1214015203, "addr:city": null, "addr:housenumber": null, "addr:postcode": null, "addr:state": null, "addr:street": null, "building": "college", "building:levels": null, "building:use": null, "name": "Blinn RELLIS Administration Building", "short_name": "BLRA", "man_made": null, "leisure": null, "operator": "Blinn College", "ref": null }, "geometry": { "type": "Polygon", "coordinates": [ [ [ -96.468142, 30.6432861 ], [ -96.4686242, 30.6432856 ], [ -96.4686234, 30.6425981 ], [ -96.4682671, 30.6425984 ], [ -96.4682676, 30.6429983 ], [ -96.468206, 30.6429984 ], [ -96.4681417, 30.6429985 ], [ -96.468142, 30.6432861 ] ] ] } },
{ "type": "Feature", "properties": { "element": "way", "id": 1538935334, "addr:city": null, "addr:housenumber": null, "addr:postcode": null, "addr:state": null, "addr:street": null, "building": "university", "building:levels": null, "building:use": null, "name": null, "short_name": null, "man_made": null, "leisure": null, "operator": null, "ref": null }, "geometry": { "type": "Polygon", "coordinates": [ [ [ -96.4688765, 30.6377478 ], [ -96.4688763, 30.6375153 ], [ -96.4682592, 30.6375157 ], [ -96.4682594, 30.6377482 ], [ -96.4688765, 30.6377478 ] ] ] } },
{ "type": "Feature", "properties": { "element": "way", "id": 1538935335, "addr:city": null, "addr:housenumber": null, "addr:postcode": null, "addr:state": null, "addr:street": null, "building": "university", "building:levels": null, "building:use": null, "name": null, "short_name": null, "man_made": null, "leisure": null, "operator": null, "ref": null }, "geometry": { "type": "Polygon", "coordinates": [ [ [ -96.4723819, 30.6352019 ], [ -96.471677, 30.6352022 ], [ -96.4716769, 30.635005 ], [ -96.4723817, 30.6350045 ], [ -96.4723819, 30.6352019 ] ] ] } },
{ "type": "Feature", "properties": { "element": "way", "id": 1538935336, "addr:city": null, "addr:housenumber": null, "addr:postcode": null, "addr:state": null, "addr:street": null, "building": "university", "building:levels": null, "building:use": null, "name": null, "short_name": null, "man_made": null, "leisure": null, "operator": null, "ref": null }, "geometry": { "type": "Polygon", "coordinates": [ [ [ -96.4725775, 30.6349214 ], [ -96.4722551, 30.6349204 ], [ -96.4722567, 30.6345359 ], [ -96.472579, 30.6345368 ], [ -96.4725775, 30.6349214 ] ] ] } },
{ "type": "Feature", "properties": { "element": "way", "id": 1538935337, "addr:city": null, "addr:housenumber": null, "addr:postcode": null, "addr:state": null, "addr:street": null, "building": "university", "building:levels": null, "building:use": null, "name": null, "short_name": null, "man_made": null, "leisure": null, "operator": null, "ref": null }, "geometry": { "type": "Polygon", "coordinates": [ [ [ -96.4719995, 30.6349211 ], [ -96.4716778, 30.6349201 ], [ -96.4716794, 30.6345373 ], [ -96.4720011, 30.6345383 ], [ -96.4719995, 30.6349211 ] ] ] } },
{ "type": "Feature", "properties": { "element": "way", "id": 1538935339, "addr:city": "Bryan", "addr:housenumber": "1734", "addr:postcode": "77807", "addr:state": "TX", "addr:street": "Avenue D", "building": "university", "building:levels": null, "building:use": null, "name": "TEES - Process Engineering Guayule Extraction", "short_name": null, "man_made": null, "leisure": null, "operator": null, "ref": null }, "geometry": { "type": "Polygon", "coordinates": [ [ [ -96.4708569, 30.6347048 ], [ -96.4708563, 30.6345965 ], [ -96.4709668, 30.6345961 ], [ -96.4709674, 30.6347044 ], [ -96.4708569, 30.6347048 ] ] ] } },
{ "type": "Feature", "properties": { "element": "way", "id": 1538935340, "addr:city": null, "addr:housenumber": null, "addr:postcode": null, "addr:state": null, "addr:street": null, "building": "university", "building:levels": null, "building:use": null, "name": null, "short_name": null, "man_made": null, "leisure": null, "operator": null, "ref": null }, "geometry": { "type": "Polygon", "coordinates": [ [ [ -96.4708041, 30.6345453 ], [ -96.4708047, 30.6344588 ], [ -96.4707043, 30.6344582 ], [ -96.4707037, 30.6345448 ], [ -96.4708041, 30.6345453 ] ] ] } },
{ "type": "Feature", "properties": { "element": "way", "id": 1538935341, "addr:city": "Bryan", "addr:housenumber": "1770", "addr:postcode": "77807", "addr:state": "TX", "addr:street": "Avenue D", "building": "university", "building:levels": null, "building:use": null, "name": "TEES - Process Engineering Fats & Oil Processing", "short_name": null, "man_made": null, "leisure": null, "operator": null, "ref": null }, "geometry": { "type": "Polygon", "coordinates": [ [ [ -96.4708586, 30.6343222 ], [ -96.4708537, 30.6341319 ], [ -96.4709164, 30.6341307 ], [ -96.4709177, 30.634181 ], [ -96.4709755, 30.6341799 ], [ -96.4709773, 30.6342503 ], [ -96.4710136, 30.6342497 ], [ -96.4710144, 30.6342833 ], [ -96.4709775, 30.634284 ], [ -96.4709784, 30.6343199 ], [ -96.4708586, 30.6343222 ] ] ] } },
{ "type": "Feature", "properties": { "element": "way", "id": 1538935342, "addr:city": "Bryan", "addr:housenumber": "1808", "addr:postcode": "77807", "addr:state": "TX", "addr:street": "Avenue B", "building": "university", "building:levels": null, "building:use": null, "name": "TEEX EUPWTI Parking", "short_name": null, "man_made": null, "leisure": null, "operator": null, "ref": null }, "geometry": { "type": "Polygon", "coordinates": [ [ [ -96.4730824, 30.6340354 ], [ -96.4730824, 30.6338669 ], [ -96.4729194, 30.6338669 ], [ -96.4729194, 30.6340354 ], [ -96.4730824, 30.6340354 ] ] ] } },
{ "type": "Feature", "properties": { "element": "way", "id": 1538935344, "addr:city": "Bryan", "addr:housenumber": "1248", "addr:postcode": "77807", "addr:state": "TX", "addr:street": "Avenue B", "building": "university", "building:levels": null, "building:use": null, "name": "TEEX EUPWTI Building", "short_name": null, "man_made": null, "leisure": null, "operator": null, "ref": null }, "geometry": { "type": "Polygon", "coordinates": [ [ [ -96.4723774, 30.6336877 ], [ -96.4723773, 30.6336036 ], [ -96.4722425, 30.6336037 ], [ -96.4722426, 30.6336878 ], [ -96.4723774, 30.6336877 ] ] ] } },
{ "type": "Feature", "properties": { "element": "way", "id": 1538935345, "addr:city": "Bryan", "addr:housenumber": "1861", "addr:postcode": "77807", "addr:state": "TX", "addr:street": "Avenue B", "building": "university", "building:levels": null, "building:use": null, "name": "TEEX ITSI Shop", "short_name": null, "man_made": null, "leisure": null, "operator": null, "ref": null }, "geometry": { "type": "Polygon", "coordinates": [ [ [ -96.4723757, 30.6334015 ], [ -96.4723762, 30.6332887 ], [ -96.4722869, 30.6332884 ], [ -96.4722865, 30.6334012 ], [ -96.4723757, 30.6334015 ] ] ] } },
{ "type": "Feature", "properties": { "element": "way", "id": 1538935346, "addr:city": "Bryan", "addr:housenumber": "1855", "addr:postcode": "77807", "addr:state": "TX", "addr:street": "Avenue B", "building": "university", "building:levels": null, "building:use": null, "name": "TEEX - ITSI", "short_name": null, "man_made": null, "leisure": null, "operator": null, "ref": null }, "geometry": { "type": "Polygon", "coordinates": [ [ [ -96.4724226, 30.6331158 ], [ -96.4724215, 30.6332168 ], [ -96.4725568, 30.6332179 ], [ -96.4725579, 30.6331169 ], [ -96.4724226, 30.6331158 ] ] ] } },
{ "type": "Feature", "properties": { "element": "way", "id": 1538935347, "addr:city": "Bryan", "addr:housenumber": "1833", "addr:postcode": "77807", "addr:state": "TX", "addr:street": "Avenue B", "building": "university", "building:levels": null, "building:use": null, "name": "TEEX EUPWTI Building", "short_name": null, "man_made": null, "leisure": null, "operator": null, "ref": null }, "geometry": { "type": "Polygon", "coordinates": [ [ [ -96.4717351, 30.6334065 ], [ -96.4717341, 30.6335206 ], [ -96.4716321, 30.6335199 ], [ -96.4716331, 30.6334059 ], [ -96.4717351, 30.6334065 ] ] ] } },
{ "type": "Feature", "properties": { "element": "way", "id": 1538935348, "addr:city": null, "addr:housenumber": null, "addr:postcode": null, "addr:state": null, "addr:street": null, "building": "shed", "building:levels": null, "building:use": null, "name": null, "short_name": null, "man_made": null, "leisure": null, "operator": null, "ref": null }, "geometry": { "type": "Polygon", "coordinates": [ [ [ -96.4716402, 30.6335445 ], [ -96.4716407, 30.6335756 ], [ -96.4717133, 30.6335747 ], [ -96.4717128, 30.6335436 ], [ -96.4716402, 30.6335445 ] ] ] } },
{ "type": "Feature", "properties": { "element": "way", "id": 1539339632, "addr:city": null, "addr:housenumber": null, "addr:postcode": null, "addr:state": null, "addr:street": null, "building": "yes", "building:levels": null, "building:use": null, "name": null, "short_name": null, "man_made": null, "leisure": null, "operator": null, "ref": null }, "geometry": { "type": "Polygon", "coordinates": [ [ [ -96.4664845, 30.6287329 ], [ -96.4665013, 30.6286786 ], [ -96.4665608, 30.6286922 ], [ -96.4665787, 30.6286343 ], [ -96.4666699, 30.6286552 ], [ -96.4666502, 30.628719 ], [ -96.4666795, 30.6287257 ], [ -96.4666645, 30.6287741 ], [ -96.4664845, 30.6287329 ] ] ] } }
]
}
